{
  "type": "FeatureCollection",
  "features": [
    {
      "type": "Feature",
      "properties": { "id": 21271, "path": 137, "dir": "ASCENDING" },
      "geometry": {
        "type": "Polygon",
        "coordinates": [
          [
            [-127.0221, 61.6164],
            [-126.2048, 61.6899],
            [-126.1378, 61.4976],
            [-126.1089, 61.4201],
            [-125.4052, 61.4801],
            [-124.6775, 61.5379],
            [-124.5179, 61.0446],
            [-124.3615, 60.5513],
            [-124.2975, 60.3468],
            [-124.2504, 60.1819],
            [-124.1996, 60.0174],
            [-124.8952, 59.9646],
            [-125.6162, 59.9059],
            [-125.6547, 60.0145],
            [-126.3848, 59.9507],
            [-127.2061, 59.8735],
            [-127.28, 60.0566],
            [-127.2746, 60.0575],
            [-127.3062, 60.1354],
            [-127.9925, 60.0675],
            [-128.7829, 59.9842],
            [-128.9385, 60.326],
            [-129.0897, 60.6532],
            [-129.2432, 60.98],
            [-129.4063, 61.3217],
            [-129.3992, 61.3228],
            [-129.4779, 61.4859],
            [-128.6521, 61.5762],
            [-127.8833, 61.6552],
            [-127.8327, 61.5383],
            [-127.0221, 61.6164]
          ]
        ]
      }
    }
  ]
}
