<?xml version="1.0" encoding="UTF-8"?>
<kml xmlns="http://www.opengis.net/kml/2.2">
  <Document>
    <Placemark>
      <Polygon>
        <outerBoundaryIs>
          <LinearRing>
            <coordinates>
              -43.7081,-16.7393,0
              -43.7068,-16.9726,0
              -43.4056,-16.9702,0
              -43.412,-16.7345,0
              -43.7081,-16.7393,0
            </coordinates>
          </LinearRing>
        </outerBoundaryIs>
      </Polygon>
    </Placemark>
  </Document>
</kml>
