{
  "type": "FeatureCollection",
  "features": [
    {
      "type": "Feature",
      "properties": {
        "priority": 3.0,
        "orbit_pass": "ASCENDING"
      },
      "geometry": {
        "type": "MultiPolygon",
        "coordinates": [
          [
            [
              [
                -177.59969799999914,
                53.24108799999508
              ],
              [
                -173.8934559999978,
                53.75683799999528
              ],
              [
                -173.56285562806968,
                52.43682863506046
              ],
              [
                -173.56261499999775,
                52.43686299999467
              ],
              [
                -173.55392433758152,
                52.40116809718338
              ],
              [
                -173.51159899999772,
                52.232172999994596
              ],
              [
                -173.51273999133656,
                52.23201283994838
              ],
              [
                -173.191246,
                50.91155
              ],
              [
                -176.67323,
                50.410185
              ],
              [
                -176.8312925474061,
                50.90252428704802
              ],
              [
                -178.795465,
                50.620884
              ],
              [
                -178.91653395943308,
                50.99570380432453
              ],
              [
                -179.36731094731812,
                50.927460501949625
              ],
              [
                -179.171315,
                50.114008
              ],
              [
                -180.0,
                50.033478277100976
              ],
              [
                -180.0,
                50.8316774617948
              ],
              [
                -180.0,
                51.387489955875836
              ],
              [
                -180.0,
                51.593111951559194
              ],
              [
                -180.0,
                52.45551646355714
              ],
              [
                -180.0,
                52.94660630225011
              ],
              [
                -179.864033,
                52.95987599999496
              ],
              [
                -179.7481243763284,
                52.48892144175108
              ],
              [
                -177.75694799999923,
                52.75300099999486
              ],
              [
                -177.6617251488403,
                52.36448034466177
              ],
              [
                -177.32295897130643,
                52.4126555987572
              ],
              [
                -177.59969799999914,
                53.24108799999508
              ]
            ]
          ],
          [
            [
              [
                -170.78646,
                51.319141
              ],
              [
                -170.9097223609897,
                51.692940001147825
              ],
              [
                -172.87525199999754,
                51.41539599999419
              ],
              [
                -173.37538199999764,
                52.92757799999489
              ],
              [
                -171.41965364582177,
                53.20138381869414
              ],
              [
                -171.745167,
                54.147625
              ],
              [
                -167.952688,
                54.66578
              ],
              [
                -167.8273215826271,
                54.175525221288396
              ],
              [
                -165.840384,
                54.448209
              ],
              [
                -165.452645,
                52.923885
              ],
              [
                -167.4417860536169,
                52.64845337219814
              ],
              [
                -167.236538,
                51.821363
              ],
              [
                -170.78646,
                51.319141
              ]
            ]
          ],
          [
            [
              [
                -161.591188,
                53.930589
              ],
              [
                -165.316141,
                53.424934
              ],
              [
                -165.83202448757976,
                54.885769559953765
              ],
              [
                -166.2729191899242,
                56.07700214028323
              ],
              [
                -166.132095,
                55.562606
              ],
              [
                -170.007753,
                55.053272
              ],
              [
                -170.18495804938735,
                55.52646474324886
              ],
              [
                -172.147136,
                55.269667
              ],
              [
                -172.6955515715818,
                56.721794762560044
              ],
              [
                -173.239939,
                58.090589
              ],
              [
                -169.044955,
                58.619783
              ],
              [
                -168.91146993472657,
                58.15089890962283
              ],
              [
                -166.922057,
                58.402932
              ],
              [
                -166.5495349616571,
                57.085240295132586
              ],
              [
                -166.548961,
                57.085315
              ],
              [
                -166.5307421553605,
                57.01876604013732
              ],
              [
                -166.491729,
                56.880768
              ],
              [
                -166.4929212007811,
                56.88061539238316
              ],
              [
                -166.32087319896544,
                56.25216634449552
              ],
              [
                -162.4221458837773,
                56.76281813529832
              ],
              [
                -162.58832699463431,
                57.195042011964986
              ],
              [
                -163.10928694875392,
                58.48031816829515
              ],
              [
                -163.40370708012986,
                59.158648367612734
              ],
              [
                -167.306696,
                58.682207
              ],
              [
                -167.9319589511157,
                60.118815854492986
              ],
              [
                -168.5357407434407,
                61.42278324534233
              ],
              [
                -168.85037117394103,
                62.058108123379846
              ],
              [
                -170.06832004520822,
                61.9181639915489
              ],
              [
                -169.8489419196517,
                61.25224710893167
              ],
              [
                -169.847419,
                61.252429
              ],
              [
                -169.82042725951348,
                61.16569156224724
              ],
              [
                -169.781674,
                61.048057
              ],
              [
                -169.78374491897682,
                61.04781356803229
              ],
              [
                -169.374299,
                59.732067
              ],
              [
                -173.70788,
                59.20863
              ],
              [
                -173.85550678953325,
                59.53949337314409
              ],
              [
                -175.806858,
                59.30427
              ],
              [
                -176.480273,
                60.806759
              ],
              [
                -174.5359608300485,
                61.03850682104871
              ],
              [
                -175.00212,
                62.018744
              ],
              [
                -173.0597492864195,
                62.244478751264445
              ],
              [
                -173.4573979156964,
                63.03412986292632
              ],
              [
                -174.20417,
                64.412712
              ],
              [
                -170.36268498660445,
                64.86403953833396
              ],
              [
                -170.6269870606783,
                65.32364394952728
              ],
              [
                -171.489325,
                66.702329
              ],
              [
                -167.67165349383805,
                67.13009106553322
              ],
              [
                -167.98951798473644,
                67.60470212142023
              ],
              [
                -168.9398270783986,
                68.89334590574887
              ],
              [
                -170.06574,
                70.268366
              ],
              [
                -166.30453847655073,
                70.63610268848949
              ],
              [
                -166.749061,
                71.139064
              ],
              [
                -163.00181567703257,
                71.49910749453605
              ],
              [
                -163.593453,
                72.110589
              ],
              [
                -156.434653,
                72.785503
              ],
              [
                -156.2629894456815,
                72.50222058031348
              ],
              [
                -154.309564,
                72.686691
              ],
              [
                -154.07126729648238,
                72.28994200655794
              ],
              [
                -152.11793,
                72.475145
              ],
              [
                -151.95238365531762,
                72.19447909218779
              ],
              [
                -150.000924,
                72.379846
              ],
              [
                -149.76611842125453,
                71.97855262999776
              ],
              [
                -147.806392,
                72.165416
              ],
              [
                -147.4133539118953,
                71.48124812716493
              ],
              [
                -143.50343,
                71.856282
              ],
              [
                -143.27982199603218,
                71.45701562740747
              ],
              [
                -141.32888,
                71.64499
              ],
              [
                -140.94855515653376,
                70.95451195936752
              ],
              [
                -137.031642,
                71.334144
              ],
              [
                -136.32918186903572,
                70.0270334152641
              ],
              [
                -136.324693,
                70.02748
              ],
              [
                -136.2778500391639,
                69.93151713583164
              ],
              [
                -136.220072,
                69.824006
              ],
              [
                -136.22512772055174,
                69.82350977230655
              ],
              [
                -135.68582469677582,
                68.71868928503505
              ],
              [
                -135.682226,
                68.719057
              ],
              [
                -135.63777380097852,
                68.62025183564546
              ],
              [
                -135.586584,
                68.515384
              ],
              [
                -135.59042011405316,
                68.51499745178042
              ],
              [
                -135.0928344862131,
                67.40899975489641
              ],
              [
                -135.089431,
                67.409357
              ],
              [
                -135.04887130352245,
                67.31128154101917
              ],
              [
                -135.00128,
                67.205499
              ],
              [
                -135.0049665519511,
                67.20511756456571
              ],
              [
                -134.54698036757034,
                66.09768311261148
              ],
              [
                -134.540398,
                66.098393
              ],
              [
                -134.03511311434775,
                64.7858174232575
              ],
              [
                -134.033123,
                64.785964
              ],
              [
                -134.00285441760332,
                64.70201919638274
              ],
              [
                -133.956586,
                64.581828
              ],
              [
                -133.95940521404526,
                64.58152016500394
              ],
              [
                -133.55943876284974,
                63.47228073122058
              ],
              [
                -133.557857,
                63.472461
              ],
              [
                -133.53077554452503,
                63.392788133854346
              ],
              [
                -133.485862,
                63.268228
              ],
              [
                -133.48834194259015,
                63.267949692650156
              ],
              [
                -133.41103395435664,
                63.04051180607822
              ],
              [
                -131.431558,
                63.267107
              ],
              [
                -130.9859168642588,
                61.952536237317545
              ],
              [
                -130.984236,
                61.952734
              ],
              [
                -130.95580466988943,
                61.863710033577824
              ],
              [
                -130.916709,
                61.748384
              ],
              [
                -130.91889256080114,
                61.74813111597993
              ],
              [
                -130.8758627746472,
                61.61339657409168
              ],
              [
                -128.888688,
                61.847639
              ],
              [
                -128.4703499956099,
                60.531958493181385
              ],
              [
                -128.469339,
                60.532081
              ],
              [
                -128.4481445563222,
                60.46212198942238
              ],
              [
                -128.405389,
                60.327655
              ],
              [
                -128.407336725825,
                60.32742274990435
              ],
              [
                -128.0705044538924,
                59.21560057456101
              ],
              [
                -128.069682,
                59.215703
              ],
              [
                -128.05071791817667,
                59.150288812550365
              ],
              [
                -128.008586,
                59.011219
              ],
              [
                -128.0103382582033,
                59.011004312975736
              ],
              [
                -127.9368693744369,
                58.75758274586875
              ],
              [
                -125.952901,
                59.005749
              ],
              [
                -125.57344128481517,
                57.6884086424156
              ],
              [
                -125.572785,
                57.688493
              ],
              [
                -125.55319250182806,
                57.61811253994822
              ],
              [
                -125.514547,
                57.48395
              ],
              [
                -125.51580025371659,
                57.483791556408384
              ],
              [
                -125.20591195887292,
                56.37060626659122
              ],
              [
                -125.205058,
                56.370719
              ],
              [
                -125.18473748826095,
                56.29454302187654
              ],
              [
                -125.148986,
                56.166116
              ],
              [
                -125.15042866215622,
                56.16592872217977
              ],
              [
                -125.1081271873529,
                56.00735219317354
              ],
              [
                -123.118136,
                56.270549
              ],
              [
                -122.76734738538586,
                54.95176134683163
              ],
              [
                -122.766945,
                54.951816
              ],
              [
                -122.75455909692853,
                54.90368385451839
              ],
              [
                -122.712928,
                54.747172
              ],
              [
                -122.71423867408197,
                54.74699697854886
              ],
              [
                -122.6420863537718,
                54.46660999683553
              ],
              [
                -120.653894,
                54.73781
              ],
              [
                -120.3160758965007,
                53.41826430621082
              ],
              [
                -120.315771,
                53.418307
              ],
              [
                -120.30544744145362,
                53.376748674148104
              ],
              [
                -120.263686,
                53.213625
              ],
              [
                -120.2648846883672,
                53.213460007488905
              ],
              [
                -119.98782435057208,
                52.098131049261674
              ],
              [
                -119.987602,
                52.098163
              ],
              [
                -119.97746147145914,
                52.056414435266134
              ],
              [
                -119.936981,
                51.893457
              ],
              [
                -119.93785006982999,
                51.893334260652935
              ],
              [
                -119.89462996301268,
                51.71539704367288
              ],
              [
                -117.906416,
                52.001634
              ],
              [
                -117.78407166669719,
                51.496973260999766
              ],
              [
                -117.38240672788147,
                51.55502346381884
              ],
              [
                -117.65124,
                52.381451
              ],
              [
                -114.016477,
                52.895738
              ],
              [
                -113.9217222286424,
                52.51000661242071
              ],
              [
                -111.930634,
                52.792243
              ],
              [
                -111.80915519928953,
                52.29650070698882
              ],
              [
                -109.822224,
                52.579352
              ],
              [
                -109.7289829095975,
                52.19721533214553
              ],
              [
                -107.739798,
                52.480919
              ],
              [
                -107.61800641435813,
                51.980732194292486
              ],
              [
                -105.629073,
                52.265579
              ],
              [
                -105.50928839033944,
                51.77399079015719
              ],
              [
                -103.523499,
                52.059573
              ],
              [
                -103.42826217909771,
                51.66719608368828
              ],
              [
                -101.437853,
                51.95398
              ],
              [
                -101.31738224832608,
                51.4564801003097
              ],
              [
                -100.91441139653962,
                51.51477878820974
              ],
              [
                -101.21888,
                52.448743
              ],
              [
                -97.576969,
                52.963351
              ],
              [
                -97.45495278106395,
                52.46736569217878
              ],
              [
                -95.467047,
                52.749452
              ],
              [
                -95.3741779801999,
                52.37026928142197
              ],
              [
                -93.385902,
                52.652953
              ],
              [
                -93.26344239731972,
                52.151974671665464
              ],
              [
                -91.27345,
                52.436065
              ],
              [
                -91.1534008444199,
                51.942642195577086
              ],
              [
                -89.167253,
                52.227388
              ],
              [
                -89.07234522538245,
                51.83775476405517
              ],
              [
                -87.082021,
                52.123625
              ],
              [
                -86.96066089407266,
                51.62422834582646
              ],
              [
                -84.974632,
                51.9107
              ],
              [
                -84.65498870041823,
                50.59003716690388
              ],
              [
                -84.654591,
                50.590096
              ],
              [
                -84.64103169690017,
                50.532371338050915
              ],
              [
                -84.605448,
                50.385351
              ],
              [
                -84.6064625354525,
                50.38520351211322
              ],
              [
                -84.56213650107526,
                50.19649872904789
              ],
              [
                -82.573197,
                50.491274
              ],
              [
                -82.45327028618803,
                49.97979507641627
              ],
              [
                -80.468136,
                50.275247
              ],
              [
                -80.15653017749831,
                48.954006448931985
              ],
              [
                -80.155989,
                48.954089
              ],
              [
                -80.1387268828818,
                48.8785186592588
              ],
              [
                -80.108256,
                48.749319
              ],
              [
                -80.10918278693897,
                48.74918009771383
              ],
              [
                -79.85399281749704,
                47.6320058361558
              ],
              [
                -79.853947,
                47.632013
              ],
              [
                -79.85163895243052,
                47.62170105233829
              ],
              [
                -79.807217,
                47.42723
              ],
              [
                -79.80808217605316,
                47.427097091719766
              ],
              [
                -79.73797208329351,
                47.113857617518306
              ],
              [
                -77.755363,
                47.425106
              ],
              [
                -77.66090729523913,
                47.00594314810918
              ],
              [
                -76.95008311978437,
                47.11773489178179
              ],
              [
                -77.181676,
                47.919741
              ],
              [
                -73.869341,
                48.430204
              ],
              [
                -73.77681819257175,
                48.0219900941301
              ],
              [
                -73.12658643866084,
                48.12237456719756
              ],
              [
                -73.35655276314564,
                48.89970961533936
              ],
              [
                -73.768737,
                50.245748
              ],
              [
                -70.297636,
                50.757689
              ],
              [
                -70.20548679142163,
                50.36669719417428
              ],
              [
                -68.217146,
                50.660508
              ],
              [
                -68.09652391263371,
                50.14782247092378
              ],
              [
                -66.106747,
                50.443033
              ],
              [
                -65.98843566336681,
                49.93809395607778
              ],
              [
                -64.005572,
                50.233539
              ],
              [
                -63.69688207503638,
                48.91185304167277
              ],
              [
                -63.693523,
                48.912366
              ],
              [
                -63.39160256321619,
                47.59026786818482
              ],
              [
                -63.391557,
                47.590275
              ],
              [
                -63.38925659855242,
                47.5799949779747
              ],
              [
                -63.344839,
                47.385492
              ],
              [
                -63.345702195107535,
                47.38535928637234
              ],
              [
                -63.09558187435381,
                46.26762289778179
              ],
              [
                -63.095575,
                46.267624
              ],
              [
                -63.095073965029655,
                46.265353155235466
              ],
              [
                -63.049755,
                46.062832
              ],
              [
                -63.050368742941394,
                46.06273532307721
              ],
              [
                -62.80365814101013,
                44.94456690787323
              ],
              [
                -62.803487,
                44.944595
              ],
              [
                -62.795242493306766,
                44.90642460113115
              ],
              [
                -62.758475,
                44.739783
              ],
              [
                -62.759223157626465,
                44.73966236039729
              ],
              [
                -62.473335,
                43.416058
              ],
              [
                -64.45969703417836,
                43.08827361728038
              ],
              [
                -64.291995,
                42.301485
              ],
              [
                -67.269433,
                41.800762
              ],
              [
                -67.66728685869809,
                43.319280304572736
              ],
              [
                -67.76058240018263,
                43.66641569731819
              ],
              [
                -68.6671554759248,
                43.51792963895246
              ],
              [
                -68.474401,
                42.616985
              ],
              [
                -68.4750695298347,
                42.61687316859809
              ],
              [
                -68.195753,
                41.292449
              ],
              [
                -70.17961314598159,
                40.953082856383695
              ],
              [
                -70.337985,
                41.712648
              ],
              [
                -70.34065266962763,
                41.71218523222147
              ],
              [
                -70.620622,
                43.036756
              ],
              [
                -73.631919,
                42.52585
              ],
              [
                -73.40384432652398,
                41.64312509272605
              ],
              [
                -73.92069592077938,
                41.55359026346168
              ],
              [
                -74.15912279139175,
                41.51228728715361
              ],
              [
                -74.4015880838417,
                41.47028473012693
              ],
              [
                -74.517602,
                42.025051
              ],
              [
                -77.479296,
                41.513901
              ],
              [
                -77.14288562292016,
                40.188121124068054
              ],
              [
                -77.142943,
                40.188111
              ],
              [
                -76.92816830230956,
                39.32299902501019
              ],
              [
                -78.899082,
                38.968221
              ],
              [
                -78.71397302265459,
                38.208950977387595
              ],
              [
                -80.681501,
                37.848434
              ],
              [
                -80.50300796115863,
                37.10462212391763
              ],
              [
                -81.68699049296205,
                36.88386314908158
              ],
              [
                -81.78136,
                37.352671
              ],
              [
                -81.78362851202087,
                37.35224876681449
              ],
              [
                -82.053172,
                38.678402
              ],
              [
                -84.03298778127284,
                38.3174320239693
              ],
              [
                -84.149993,
                38.892447
              ],
              [
                -86.13567815799718,
                38.531772036694306
              ],
              [
                -86.230354,
                38.996587
              ],
              [
                -88.21248318360584,
                38.63702794889196
              ],
              [
                -88.328563,
                39.206084
              ],
              [
                -90.31352422165367,
                38.84727485934816
              ],
              [
                -90.431376,
                39.423914
              ],
              [
                -92.41564124410377,
                39.06645571476947
              ],
              [
                -92.508564,
                39.52078
              ],
              [
                -94.49233364442028,
                39.16398449729368
              ],
              [
                -94.609442,
                39.735572
              ],
              [
                -96.59525703752,
                39.37966721566193
              ],
              [
                -96.688892,
                39.836248
              ],
              [
                -99.555175,
                39.323334
              ],
              [
                -99.36958012581951,
                38.56603701670952
              ],
              [
                -100.4987279533575,
                38.36034900012213
              ],
              [
                -100.593825,
                38.827905
              ],
              [
                -102.57609858771534,
                38.46746046134116
              ],
              [
                -102.69163,
                39.034669
              ],
              [
                -105.523869,
                38.521328
              ],
              [
                -105.20254039942354,
                37.193952917007465
              ],
              [
                -105.202648,
                37.193933
              ],
              [
                -104.88694064392895,
                35.865938606625754
              ],
              [
                -104.887055,
                35.865917
              ],
              [
                -104.7155829995403,
                35.13223177886369
              ],
              [
                -105.97125199816541,
                34.890957744533175
              ],
              [
                -106.066875,
                35.370579
              ],
              [
                -108.765118,
                34.852863
              ],
              [
                -108.5962506941917,
                34.12175607318161
              ],
              [
                -109.88322640327273,
                33.870747737049925
              ],
              [
                -109.93978357052464,
                34.15651746102571
              ],
              [
                -109.939373,
                34.156596
              ],
              [
                -110.245364,
                35.68843
              ],
              [
                -112.22478290867949,
                35.310420937399066
              ],
              [
                -112.30175267403285,
                35.69340158904123
              ],
              [
                -112.30159,
                35.693432
              ],
              [
                -112.609671,
                37.224859
              ],
              [
                -114.59122283600226,
                36.85528308768807
              ],
              [
                -114.709647,
                37.443295
              ],
              [
                -116.69295476752697,
                37.07469154944425
              ],
              [
                -116.786777,
                37.54024
              ],
              [
                -118.76967314876552,
                37.172196778757865
              ],
              [
                -118.887394,
                37.755454
              ],
              [
                -120.87220543479437,
                37.38830147118928
              ],
              [
                -120.92532873285523,
                37.651280164478464
              ],
              [
                -120.924817,
                37.651373
              ],
              [
                -121.19526156138267,
                38.977223203014624
              ],
              [
                -121.194711,
                38.977321
              ],
              [
                -121.511044,
                40.507543
              ],
              [
                -124.402867,
                39.995664
              ],
              [
                -124.21464640246067,
                39.23511580733894
              ],
              [
                -126.18239453524203,
                38.88049530323391
              ],
              [
                -126.511756,
                40.207068
              ],
              [
                -126.51169908602499,
                40.20707803788915
              ],
              [
                -126.848161,
                41.532941
              ],
              [
                -126.84811988210993,
                41.53294809314021
              ],
              [
                -127.192205,
                42.858096
              ],
              [
                -127.1921948375921,
                42.85809771388161
              ],
              [
                -127.544736,
                44.182485
              ],
              [
                -125.5830072891556,
                44.50577930569881
              ],
              [
                -125.79479754064899,
                45.28338590661424
              ],
              [
                -126.16412497827218,
                46.601356920694045
              ],
              [
                -126.54461851879034,
                47.91877074495507
              ],
              [
                -126.64400232362996,
                48.25192880320892
              ],
              [
                -128.610216,
                47.955588
              ],
              [
                -129.0561638788164,
                49.442636104848965
              ],
              [
                -129.46454588807705,
                50.7569803832231
              ],
              [
                -129.53767101378557,
                50.98362312156169
              ],
              [
                -131.506139,
                50.701837
              ],
              [
                -131.66349183358537,
                51.18790815206952
              ],
              [
                -133.627213,
                50.907952
              ],
              [
                -134.10721151030037,
                52.38174096623686
              ],
              [
                -134.5522773983383,
                53.6937036182776
              ],
              [
                -135.0169982566917,
                55.004490324872876
              ],
              [
                -135.13900275442185,
                55.33273724698096
              ],
              [
                -137.099788,
                55.075206
              ],
              [
                -137.23292882468502,
                55.43051454551152
              ],
              [
                -139.193895,
                55.173452
              ],
              [
                -139.74025455031463,
                56.62604815852662
              ],
              [
                -140.25860399872215,
                57.93505148473539
              ],
              [
                -140.3924509440154,
                58.25498398695793
              ],
              [
                -142.344937,
                58.013365
              ],
              [
                -142.6790955013179,
                58.804782453514
              ],
              [
                -146.589034,
                58.324144
              ],
              [
                -146.92692849941326,
                59.113322869219736
              ],
              [
                -150.5463284073536,
                58.671087399804605
              ],
              [
                -150.4541588674216,
                58.358087948864025
              ],
              [
                -150.453433,
                58.35818
              ],
              [
                -150.43588218110503,
                58.29602196929731
              ],
              [
                -150.393965,
                58.153675
              ],
              [
                -150.39563070154142,
                58.153467213447
              ],
              [
                -150.08136608018052,
                57.04046672610604
              ],
              [
                -150.080796,
                57.040541
              ],
              [
                -150.06263734184967,
                56.97413697253959
              ],
              [
                -150.023631,
                56.835992
              ],
              [
                -150.02481898175293,
                56.83583978110721
              ],
              [
                -149.664394,
                55.517809
              ],
              [
                -153.535626,
                55.008556
              ],
              [
                -153.91888820524179,
                56.033631038969446
              ],
              [
                -153.8942761132644,
                55.941470439292
              ],
              [
                -153.864486,
                55.8335
              ],
              [
                -153.86540965350346,
                55.83337925205855
              ],
              [
                -153.513303,
                54.514907
              ],
              [
                -157.2951,
                54.007512
              ],
              [
                -157.82084940041074,
                55.465882593503395
              ],
              [
                -158.0172200764535,
                55.98485508406274
              ],
              [
                -157.79177975923199,
                55.14190659433548
              ],
              [
                -157.791363,
                55.141963
              ],
              [
                -157.77870264708196,
                55.09300969748616
              ],
              [
                -157.737067,
                54.937329
              ],
              [
                -157.73839465670088,
                54.937152332401375
              ],
              [
                -157.39723,
                53.617984
              ],
              [
                -161.094461,
                53.112974
              ],
              [
                -161.60537412218798,
                54.5752171213821
              ],
              [
                -162.08476348040003,
                55.885313287997626
              ],
              [
                -162.1571756585935,
                56.07365161487038
              ],
              [
                -161.9890900386653,
                55.45429789746358
              ],
              [
                -161.988316,
                55.454402
              ],
              [
                -161.96890934603573,
                55.37993706275744
              ],
              [
                -161.933587,
                55.249783
              ],
              [
                -161.9349425731736,
                55.24960374439321
              ],
              [
                -161.591188,
                53.930589
              ]
            ],
            [
              [
                -153.92200184793245,
                56.04195880350978
              ],
              [
                -153.92090413886706,
                56.03798029799174
              ],
              [
                -153.92053279535082,
                56.038029668020364
              ],
              [
                -153.92200184793245,
                56.04195880350978
              ]
            ]
          ],
          [
            [
              [
                177.401359,
                49.613083
              ],
              [
                177.24366896961695,
                50.115591564432286
              ],
              [
                175.281935,
                49.830055
              ],
              [
                174.81505012803385,
                51.289846770947385
              ],
              [
                174.364882999998,
                52.66118799999478
              ],
              [
                178.0233239999993,
                53.17618699999505
              ],
              [
                178.14684386129773,
                52.68150697674011
              ],
              [
                180.0,
                52.94660630225011
              ],
              [
                180.0,
                52.45551646355714
              ],
              [
                180.0,
                51.593111951559194
              ],
              [
                180.0,
                51.387489955875836
              ],
              [
                180.0,
                50.8316774617948
              ],
              [
                180.0,
                50.033478277100976
              ],
              [
                177.401359,
                49.613083
              ]
            ]
          ]
        ]
      }
    },
    {
      "type": "Feature",
      "properties": {
        "priority": 2.0,
        "orbit_pass": "ASCENDING"
      },
      "geometry": {
        "type": "MultiPolygon",
        "coordinates": [
          [
            [
              [
                -170.154615,
                -13.123869
              ],
              [
                -169.780732,
                -14.651948
              ],
              [
                -172.028365,
                -15.289224
              ],
              [
                -172.388991,
                -13.76518
              ],
              [
                -170.154615,
                -13.123869
              ]
            ]
          ],
          [
            [
              [
                -102.73607526128717,
                16.476534863014354
              ],
              [
                -104.69741,
                16.011517
              ],
              [
                -105.013426,
                17.540454
              ],
              [
                -105.01339894202805,
                17.540460443084662
              ],
              [
                -105.11247663618154,
                18.01836581018402
              ],
              [
                -107.073441,
                17.560568
              ],
              [
                -107.39056,
                19.089256
              ],
              [
                -107.39052227877812,
                19.089264840479053
              ],
              [
                -107.668316,
                20.422815
              ],
              [
                -107.66825583743932,
                20.422828901345316
              ],
              [
                -107.94731,
                21.756106
              ],
              [
                -107.94723693251171,
                21.756122637213565
              ],
              [
                -108.02065811621237,
                22.104894660825682
              ],
              [
                -107.610821,
                22.196478
              ],
              [
                -107.86758542760789,
                23.526607133898963
              ],
              [
                -107.867427,
                23.526642
              ],
              [
                -108.02140917994312,
                24.323839776269324
              ],
              [
                -106.045387,
                24.752392
              ],
              [
                -106.17930615962695,
                25.445286372189866
              ],
              [
                -104.68415388038157,
                25.76519955828479
              ],
              [
                -104.60121661467798,
                25.382059336153706
              ],
              [
                -104.288167,
                23.912996
              ],
              [
                -102.3243591861924,
                24.340515318095232
              ],
              [
                -102.187006,
                23.695412
              ],
              [
                -99.772275,
                24.222354
              ],
              [
                -99.9076021190415,
                24.919658366697846
              ],
              [
                -98.40244301965357,
                25.243794837712223
              ],
              [
                -98.288873,
                24.713663
              ],
              [
                -95.85544191161544,
                25.238315132722114
              ],
              [
                -95.598524,
                23.908585
              ],
              [
                -95.59868652802788,
                23.908549396986892
              ],
              [
                -95.341921,
                22.578541
              ],
              [
                -95.34204215833479,
                22.57851404698213
              ],
              [
                -95.12464476503719,
                21.452919247585594
              ],
              [
                -95.12388,
                21.453095
              ],
              [
                -94.827274,
                19.917913
              ],
              [
                -94.8273533436985,
                19.917894825531725
              ],
              [
                -94.73705975553179,
                19.451204390150362
              ],
              [
                -93.14594868009837,
                19.823061721252188
              ],
              [
                -93.307242,
                20.596649
              ],
              [
                -91.34531020366077,
                21.049131048914752
              ],
              [
                -91.484431,
                21.713799
              ],
              [
                -91.48435743024802,
                21.713815760551654
              ],
              [
                -91.764963,
                23.046745
              ],
              [
                -89.365675,
                23.585119
              ],
              [
                -89.06939,
                22.050271
              ],
              [
                -89.06950432387305,
                22.05024541236409
              ],
              [
                -89.00346248788006,
                21.708368873296195
              ],
              [
                -87.44336928680352,
                22.064184227074172
              ],
              [
                -87.58337,
                22.73035
              ],
              [
                -85.190002,
                23.26934
              ],
              [
                -84.893697,
                21.734445
              ],
              [
                -84.89380840790687,
                21.73441997757226
              ],
              [
                -84.636808,
                20.404035
              ],
              [
                -86.60737626622685,
                19.954938795408196
              ],
              [
                -86.479201,
                19.292152
              ],
              [
                -86.47925384943417,
                19.292139811504434
              ],
              [
                -86.221421,
                17.961401
              ],
              [
                -86.22150089738503,
                17.961382319608205
              ],
              [
                -86.12783026673405,
                17.478365184559525
              ],
              [
                -84.51204608264612,
                17.86365054930892
              ],
              [
                -84.647908,
                18.519612
              ],
              [
                -82.322929,
                19.067801
              ],
              [
                -82.025723,
                17.532291
              ],
              [
                -83.99144904461883,
                17.070664867803472
              ],
              [
                -83.86557000256117,
                16.42174729636219
              ],
              [
                -83.76985981848978,
                15.930652761017758
              ],
              [
                -81.806888,
                16.405907
              ],
              [
                -81.52011110201504,
                14.935349204640726
              ],
              [
                -81.26465177808757,
                13.63078154844454
              ],
              [
                -80.984807,
                12.207939
              ],
              [
                -82.94522710012383,
                11.724333234076868
              ],
              [
                -82.83461958993139,
                11.163014912813926
              ],
              [
                -82.71976339869039,
                10.584336092381502
              ],
              [
                -80.762711,
                11.080993
              ],
              [
                -80.64304184543892,
                10.478974309023984
              ],
              [
                -78.683952,
                10.976511
              ],
              [
                -78.54230357307492,
                10.264148632568016
              ],
              [
                -76.585459,
                10.762009
              ],
              [
                -76.3051844902376,
                9.353914278992631
              ],
              [
                -76.0423067347134,
                8.041589435998024
              ],
              [
                -75.743893,
                6.564157
              ],
              [
                -77.952709,
                5.994866
              ],
              [
                -78.10091367133697,
                6.71233975144207
              ],
              [
                -80.053023,
                6.209988
              ],
              [
                -80.17841519487128,
                6.817263838568662
              ],
              [
                -82.132413,
                6.314715
              ],
              [
                -82.27947026065158,
                7.026939413948226
              ],
              [
                -84.232664,
                6.525449
              ],
              [
                -84.50792031987389,
                7.860264700939148
              ],
              [
                -84.508045,
                7.860233
              ],
              [
                -84.54264786297324,
                8.028670897044996
              ],
              [
                -84.548095,
                8.055086
              ],
              [
                -84.54807546016437,
                8.055091053596396
              ],
              [
                -84.65507742863295,
                8.575949300570242
              ],
              [
                -86.610075,
                8.079658
              ],
              [
                -86.88471932439387,
                9.414453762676048
              ],
              [
                -86.884794,
                9.414435
              ],
              [
                -87.15906023661968,
                10.749187403838434
              ],
              [
                -87.159086,
                10.749181
              ],
              [
                -87.27896282333793,
                11.332813409324983
              ],
              [
                -89.236356,
                10.84668
              ],
              [
                -89.52551938908522,
                12.25447504771746
              ],
              [
                -89.65363133930283,
                12.877519453328391
              ],
              [
                -91.611458,
                12.397682
              ],
              [
                -91.73094589518958,
                12.978799122525576
              ],
              [
                -93.690246,
                12.498987
              ],
              [
                -93.99851216252283,
                13.997935895292583
              ],
              [
                -94.10577429378613,
                14.518831420373822
              ],
              [
                -96.06416,
                14.04588
              ],
              [
                -96.18355142499352,
                14.625540123351946
              ],
              [
                -98.144284,
                14.152428
              ],
              [
                -98.28432729814155,
                14.832155510102654
              ],
              [
                -100.242931,
                14.360505
              ],
              [
                -100.558068,
                15.889662
              ],
              [
                -100.55805970691513,
                15.889664006855886
              ],
              [
                -100.65882283653455,
                16.37758485348093
              ],
              [
                -102.619485,
                15.912301
              ],
              [
                -102.73607526128717,
                16.476534863014354
              ]
            ],
            [
              [
                -101.387018,
                19.891322
              ],
              [
                -101.069234,
                18.362793
              ],
              [
                -99.10785979608762,
                18.816944042759793
              ],
              [
                -98.970287,
                18.154803
              ],
              [
                -96.648934,
                18.693514
              ],
              [
                -96.90639146446225,
                20.024182814503607
              ],
              [
                -96.906312,
                20.024201
              ],
              [
                -97.202936,
                21.559369
              ],
              [
                -99.567438,
                21.016547
              ],
              [
                -99.427050492076,
                20.346791368234403
              ],
              [
                -101.387018,
                19.891322
              ]
            ]
          ],
          [
            [
              [
                -111.252669,
                17.875932
              ],
              [
                -111.570128,
                19.404563
              ],
              [
                -111.57009345039249,
                19.404571070697347
              ],
              [
                -111.848237,
                20.738061
              ],
              [
                -109.489991,
                21.281117
              ],
              [
                -109.20009216275339,
                19.781299070391384
              ],
              [
                -108.93504,
                18.415243
              ],
              [
                -111.252669,
                17.875932
              ]
            ]
          ],
          [
            [
              [
                -88.328563,
                39.206084
              ],
              [
                -88.21248318360584,
                38.63702794889196
              ],
              [
                -86.230354,
                38.996587
              ],
              [
                -86.13567815799718,
                38.531772036694306
              ],
              [
                -84.149993,
                38.892447
              ],
              [
                -84.03298778127284,
                38.3174320239693
              ],
              [
                -82.053172,
                38.678402
              ],
              [
                -81.78362851202087,
                37.35224876681449
              ],
              [
                -81.78136,
                37.352671
              ],
              [
                -81.68699049296205,
                36.88386314908158
              ],
              [
                -80.50300796115863,
                37.10462212391763
              ],
              [
                -80.681501,
                37.848434
              ],
              [
                -78.71397302265459,
                38.208950977387595
              ],
              [
                -78.899082,
                38.968221
              ],
              [
                -76.92816830230956,
                39.32299902501019
              ],
              [
                -77.142943,
                40.188111
              ],
              [
                -77.14288562292016,
                40.188121124068054
              ],
              [
                -77.479296,
                41.513901
              ],
              [
                -74.517602,
                42.025051
              ],
              [
                -74.4015880838417,
                41.47028473012693
              ],
              [
                -75.369628,
                41.30259
              ],
              [
                -74.985129,
                39.782085
              ],
              [
                -72.098732,
                40.284157
              ],
              [
                -72.418041,
                41.813897
              ],
              [
                -73.40384432652397,
                41.64312509272605
              ],
              [
                -73.631919,
                42.52585
              ],
              [
                -70.620622,
                43.036756
              ],
              [
                -70.34065266962763,
                41.71218523222147
              ],
              [
                -70.337985,
                41.712648
              ],
              [
                -70.019021,
                40.182869
              ],
              [
                -72.00672471590617,
                39.83667031007996
              ],
              [
                -71.825239,
                38.958856
              ],
              [
                -73.80916030155427,
                38.60628514753913
              ],
              [
                -73.653498,
                37.844374
              ],
              [
                -73.65401440279884,
                37.8442806017583
              ],
              [
                -73.385738,
                36.51813
              ],
              [
                -73.38620981752847,
                36.51804288539392
              ],
              [
                -73.120142,
                35.191451
              ],
              [
                -75.10483764261687,
                34.81754811111241
              ],
              [
                -74.935896,
                33.971143
              ],
              [
                -76.91672919789738,
                33.59113700127224
              ],
              [
                -76.770209,
                32.850982
              ],
              [
                -78.74968234333848,
                32.46507235488075
              ],
              [
                -78.606962,
                31.740181
              ],
              [
                -80.58819210576854,
                31.34779398900706
              ],
              [
                -80.424271,
                30.511249
              ],
              [
                -80.4245842742612,
                30.511185889116142
              ],
              [
                -80.36591062886393,
                30.210495541670134
              ],
              [
                -78.387456,
                30.616823
              ],
              [
                -78.088366,
                29.083523
              ],
              [
                -78.08862948001922,
                29.08346889293198
              ],
              [
                -77.830245,
                27.75469
              ],
              [
                -77.83049744180143,
                27.75463725315759
              ],
              [
                -77.5729,
                26.425508
              ],
              [
                -79.54954807712267,
                26.005474242531264
              ],
              [
                -79.392814,
                25.195305
              ],
              [
                -79.39299914512836,
                25.195265055278334
              ],
              [
                -79.136044,
                23.865555
              ],
              [
                -81.543258,
                23.337889
              ],
              [
                -81.68016012713618,
                23.982170954923582
              ],
              [
                -83.644614,
                23.552687
              ],
              [
                -83.969527,
                25.079928
              ],
              [
                -83.96943777245232,
                25.079947544141067
              ],
              [
                -84.255144,
                26.411944
              ],
              [
                -84.25504206578522,
                26.411965963420542
              ],
              [
                -84.543204,
                27.743561
              ],
              [
                -84.54309066253755,
                27.743585010239183
              ],
              [
                -84.61277900417873,
                28.062470066541394
              ],
              [
                -86.581731,
                27.65326
              ],
              [
                -86.915545,
                29.179223
              ],
              [
                -86.915422187051,
                29.17924853572463
              ],
              [
                -87.00742249641998,
                29.595259763847675
              ],
              [
                -86.438218,
                29.711164
              ],
              [
                -86.737887,
                31.244315
              ],
              [
                -88.71688446815635,
                30.841390632701682
              ],
              [
                -88.798338144671,
                31.25773636993373
              ],
              [
                -88.798014,
                31.257801
              ],
              [
                -89.05901258459929,
                32.5856590651401
              ],
              [
                -89.058645,
                32.585731
              ],
              [
                -89.361572,
                34.118084
              ],
              [
                -91.34234945347738,
                33.73091255366688
              ],
              [
                -91.39758152090978,
                34.010177687603075
              ],
              [
                -91.397173,
                34.010256
              ],
              [
                -91.66202768002387,
                35.33720351866546
              ],
              [
                -91.661674,
                35.33727
              ],
              [
                -91.92796848979621,
                36.663853593739354
              ],
              [
                -91.927494,
                36.663941
              ],
              [
                -92.19602989659326,
                37.990081191910036
              ],
              [
                -92.19551,
                37.990175
              ],
              [
                -92.41564124410377,
                39.06645571476947
              ],
              [
                -90.431376,
                39.423914
              ],
              [
                -90.31352422165367,
                38.84727485934816
              ],
              [
                -88.328563,
                39.206084
              ]
            ]
          ],
          [
            [
              [
                147.070277,
                13.678087
              ],
              [
                144.810007,
                13.127514
              ],
              [
                144.5041805958923,
                14.612969438978377
              ],
              [
                144.219988,
                15.991093
              ],
              [
                144.21999568798216,
                15.991094859167871
              ],
              [
                143.944292,
                17.325186
              ],
              [
                146.252008,
                17.876008
              ],
              [
                146.54814007530925,
                16.350157857235505
              ],
              [
                146.797030906129,
                15.073736226001722
              ],
              [
                147.070277,
                13.678087
              ]
            ]
          ],
          [
            [
              [
                -66.24544567134907,
                19.048232942814884
              ],
              [
                -66.381584,
                19.703291
              ],
              [
                -64.038554,
                20.248972
              ],
              [
                -63.741455,
                18.713696
              ],
              [
                -63.741563254092185,
                18.71367088062772
              ],
              [
                -63.483884,
                17.382826
              ],
              [
                -65.787942,
                16.840915
              ],
              [
                -65.92809973332763,
                17.517843385143518
              ],
              [
                -67.88941,
                17.057567
              ],
              [
                -68.0058647659658,
                17.619658504127845
              ],
              [
                -69.968658,
                17.159497
              ],
              [
                -70.285495,
                18.688172
              ],
              [
                -67.957535,
                19.236139
              ],
              [
                -67.84791677441474,
                18.670663435201362
              ],
              [
                -66.24544567134907,
                19.048232942814884
              ]
            ]
          ]
        ]
      }
    },
    {
      "type": "Feature",
      "properties": {
        "priority": 1.0,
        "orbit_pass": "ASCENDING"
      },
      "geometry": {
        "type": "MultiPolygon",
        "coordinates": [
          [
            [
              [
                -161.18358100000145,
                20.56712199999893
              ],
              [
                -161.5040260000015,
                22.095221999999012
              ],
              [
                -159.5418243324219,
                22.54042034854746
              ],
              [
                -159.68432400000145,
                23.21658599999907
              ],
              [
                -157.28342700000132,
                23.754424999999124
              ],
              [
                -156.987041,
                22.219522
              ],
              [
                -156.9871579961175,
                22.219495856473355
              ],
              [
                -156.91976290065386,
                21.870690160566873
              ],
              [
                -154.9478170000012,
                22.319690999999047
              ],
              [
                -154.65124800000117,
                20.78457199999895
              ],
              [
                -154.65133628240173,
                20.784551958763533
              ],
              [
                -154.39402600000113,
                19.453927999998875
              ],
              [
                -154.39407946510102,
                19.45391568860065
              ],
              [
                -154.13627100000107,
                18.123107999998798
              ],
              [
                -156.4485800000012,
                17.583280999998767
              ],
              [
                -156.765822,
                19.112004
              ],
              [
                -156.76578479782498,
                19.11201271888913
              ],
              [
                -156.84116908002284,
                19.473756829855244
              ],
              [
                -158.805504,
                19.021872
              ],
              [
                -159.124194,
                20.550307
              ],
              [
                -159.12413593454366,
                20.550320403160143
              ],
              [
                -159.22069406495805,
                21.011189754839357
              ],
              [
                -161.18358100000145,
                20.56712199999893
              ]
            ]
          ],
          [
            [
              [
                -163.56699700000158,
                22.120062999999003
              ],
              [
                -163.889721,
                23.647765
              ],
              [
                -161.4803370000015,
                24.18477999999912
              ],
              [
                -161.18390300000146,
                22.649968999999032
              ],
              [
                -163.56699700000158,
                22.120062999999003
              ]
            ]
          ],
          [
            [
              [
                -119.509164,
                27.738272
              ],
              [
                -119.843181,
                29.264266
              ],
              [
                -117.87632777752198,
                29.67272122458691
              ],
              [
                -118.032337,
                30.37911
              ],
              [
                -118.03221180153254,
                30.379135611778736
              ],
              [
                -118.329577,
                31.709443
              ],
              [
                -118.3294519688351,
                31.709468109766213
              ],
              [
                -118.42191107859564,
                32.11770796696676
              ],
              [
                -120.391061,
                31.730488
              ],
              [
                -120.737139,
                33.254974
              ],
              [
                -120.73700809369402,
                33.25499971463506
              ],
              [
                -120.80284975450964,
                33.54095023801114
              ],
              [
                -122.773987,
                33.161178
              ],
              [
                -123.125326,
                34.685068
              ],
              [
                -123.1251998861744,
                34.68509226127138
              ],
              [
                -123.436353,
                36.01365
              ],
              [
                -123.43624205212423,
                36.01367091937677
              ],
              [
                -123.75265,
                37.341622
              ],
              [
                -123.75254519755741,
                37.34164135790092
              ],
              [
                -123.84303625368437,
                37.7145514389685
              ],
              [
                -125.812069,
                37.358576
              ],
              [
                -126.182485,
                38.880479
              ],
              [
                -124.21464640246067,
                39.23511580733894
              ],
              [
                -124.402867,
                39.995664
              ],
              [
                -121.511044,
                40.507543
              ],
              [
                -121.194711,
                38.977321
              ],
              [
                -121.19526156138267,
                38.977223203014624
              ],
              [
                -120.924817,
                37.651373
              ],
              [
                -120.92532873285523,
                37.651280164478464
              ],
              [
                -120.87220543479437,
                37.38830147118928
              ],
              [
                -118.887394,
                37.755454
              ],
              [
                -118.76967314876552,
                37.172196778757865
              ],
              [
                -116.786777,
                37.54024
              ],
              [
                -116.69295476752697,
                37.07469154944425
              ],
              [
                -114.709647,
                37.443295
              ],
              [
                -114.59122283600226,
                36.85528308768807
              ],
              [
                -112.609671,
                37.224859
              ],
              [
                -112.30159,
                35.693432
              ],
              [
                -112.30175267403285,
                35.69340158904123
              ],
              [
                -112.22478290867949,
                35.310420937399066
              ],
              [
                -110.245364,
                35.68843
              ],
              [
                -109.939373,
                34.156596
              ],
              [
                -109.93978357052464,
                34.15651746102571
              ],
              [
                -109.88322640327273,
                33.870747737049925
              ],
              [
                -108.5962506941917,
                34.12175607318161
              ],
              [
                -108.765118,
                34.852863
              ],
              [
                -106.066875,
                35.370579
              ],
              [
                -105.97125199816541,
                34.890957744533175
              ],
              [
                -104.7155829995403,
                35.13223177886369
              ],
              [
                -104.887055,
                35.865917
              ],
              [
                -104.88694064392895,
                35.865938606625754
              ],
              [
                -105.202648,
                37.193933
              ],
              [
                -105.20254039942354,
                37.193952917007465
              ],
              [
                -105.523869,
                38.521328
              ],
              [
                -102.69163,
                39.034669
              ],
              [
                -102.57609858771534,
                38.46746046134116
              ],
              [
                -100.593825,
                38.827905
              ],
              [
                -100.4987279533575,
                38.36034900012213
              ],
              [
                -99.36958012581951,
                38.56603701670952
              ],
              [
                -99.555175,
                39.323334
              ],
              [
                -96.688892,
                39.836248
              ],
              [
                -96.59525703752,
                39.37966721566193
              ],
              [
                -94.609442,
                39.735572
              ],
              [
                -94.49233364442028,
                39.16398449729368
              ],
              [
                -92.508564,
                39.52078
              ],
              [
                -92.19551,
                37.990175
              ],
              [
                -92.19602989659326,
                37.990081191910036
              ],
              [
                -91.927494,
                36.663941
              ],
              [
                -91.92796848979621,
                36.663853593739354
              ],
              [
                -91.661674,
                35.33727
              ],
              [
                -91.66202768002387,
                35.33720351866546
              ],
              [
                -91.397173,
                34.010256
              ],
              [
                -91.39758152090978,
                34.010177687603075
              ],
              [
                -91.34234945347738,
                33.73091255366688
              ],
              [
                -89.361572,
                34.118084
              ],
              [
                -89.058645,
                32.585731
              ],
              [
                -89.05901258459929,
                32.5856590651401
              ],
              [
                -88.798014,
                31.257801
              ],
              [
                -88.798338144671,
                31.25773636993373
              ],
              [
                -88.71688446815635,
                30.841390632701682
              ],
              [
                -86.737887,
                31.244315
              ],
              [
                -86.438218,
                29.711164
              ],
              [
                -88.41677535053203,
                29.308280361800865
              ],
              [
                -88.278158,
                28.601109
              ],
              [
                -90.788569,
                28.082409
              ],
              [
                -90.89908297642577,
                28.58575676374545
              ],
              [
                -92.864453,
                28.180121
              ],
              [
                -93.00190197172043,
                28.800540675167184
              ],
              [
                -94.43247740285904,
                28.506127162438155
              ],
              [
                -94.272942,
                27.685525
              ],
              [
                -96.24873775403336,
                27.27232235278816
              ],
              [
                -96.11219,
                26.567848
              ],
              [
                -96.11241288011912,
                26.567800728953763
              ],
              [
                -95.855257,
                25.238355
              ],
              [
                -98.288873,
                24.713663
              ],
              [
                -98.40244301965357,
                25.243794837712223
              ],
              [
                -99.9076021190415,
                24.919658366697846
              ],
              [
                -99.772275,
                24.222354
              ],
              [
                -102.187006,
                23.695412
              ],
              [
                -102.3243591861924,
                24.340515318095232
              ],
              [
                -104.288167,
                23.912996
              ],
              [
                -104.60121661467798,
                25.382059336153706
              ],
              [
                -104.68415388038157,
                25.76519955828479
              ],
              [
                -106.17930615962695,
                25.445286372189866
              ],
              [
                -106.045387,
                24.752392
              ],
              [
                -108.02140917994312,
                24.323839776269324
              ],
              [
                -107.867427,
                23.526642
              ],
              [
                -107.86758542760789,
                23.526607133898963
              ],
              [
                -107.610821,
                22.196478
              ],
              [
                -109.986465,
                21.66561
              ],
              [
                -110.12307127696316,
                22.314087545541334
              ],
              [
                -112.086477,
                21.876429
              ],
              [
                -112.408638,
                23.40419
              ],
              [
                -112.4085478470388,
                23.404210144817757
              ],
              [
                -112.691406,
                24.736769
              ],
              [
                -112.69131243185554,
                24.736789580210313
              ],
              [
                -112.7871907032562,
                25.184899678013263
              ],
              [
                -114.754092,
                24.761015
              ],
              [
                -115.081336,
                26.287972
              ],
              [
                -115.0812336231453,
                26.287994095041046
              ],
              [
                -115.369149,
                27.619699
              ],
              [
                -115.3690341881701,
                27.619723363506367
              ],
              [
                -115.43718066885963,
                27.931874621194517
              ],
              [
                -117.40512,
                27.522207
              ],
              [
                -117.54156664475055,
                28.146711789813644
              ],
              [
                -119.509164,
                27.738272
              ]
            ]
          ],
          [
            [
              [
                -97.202936,
                21.559369
              ],
              [
                -96.906312,
                20.024201
              ],
              [
                -96.90639146446225,
                20.024182814503607
              ],
              [
                -96.648934,
                18.693514
              ],
              [
                -98.970287,
                18.154803
              ],
              [
                -99.10785979608762,
                18.816944042759793
              ],
              [
                -101.069234,
                18.362793
              ],
              [
                -101.387018,
                19.891322
              ],
              [
                -99.427050492076,
                20.346791368234403
              ],
              [
                -99.567438,
                21.016547
              ],
              [
                -97.202936,
                21.559369
              ]
            ]
          ],
          [
            [
              [
                -75.369628,
                41.30259
              ],
              [
                -72.418041,
                41.813897
              ],
              [
                -72.098732,
                40.284157
              ],
              [
                -74.985129,
                39.782085
              ],
              [
                -75.369628,
                41.30259
              ]
            ]
          ]
        ]
      }
    }
  ]
}