{
  "type": "FeatureCollection",
  "features": [
    {
      "type": "Feature",
      "properties": {
        "priority": 3.0,
        "orbit_pass": "DESCENDING"
      },
      "geometry": {
        "type": "MultiPolygon",
        "coordinates": [
          [
            [
              [
                -179.57892594211785,
                51.506293863179444
              ],
              [
                -180.0,
                50.18112821101667
              ],
              [
                -180.0,
                51.3934936656684
              ],
              [
                -180.0,
                51.598170879436374
              ],
              [
                -180.0,
                52.968090592434635
              ],
              [
                -179.13135499999967,
                52.861597999994906
              ],
              [
                -179.57892594211785,
                51.506293863179444
              ]
            ]
          ],
          [
            [
              [
                -179.04858299999967,
                51.93848199999448
              ],
              [
                -179.01450332584545,
                52.07542740423032
              ],
              [
                -178.99788099999964,
                52.14316499999459
              ],
              [
                -178.99765087944854,
                52.143147097609486
              ],
              [
                -178.66912699999952,
                53.4632839999952
              ],
              [
                -176.649241718994,
                53.309424812264076
              ],
              [
                -176.58650299999877,
                53.56098699999522
              ],
              [
                -174.57142176716783,
                53.407901239514054
              ],
              [
                -174.47862399999798,
                53.778302999995304
              ],
              [
                -172.4579422210684,
                53.625321236955216
              ],
              [
                -172.36701,
                53.986485
              ],
              [
                -170.3487433676933,
                53.834146166039346
              ],
              [
                -170.3354286385953,
                53.8869172506955
              ],
              [
                -170.336689,
                53.887009
              ],
              [
                -170.29502064103175,
                54.04706875242849
              ],
              [
                -170.283767,
                54.091671
              ],
              [
                -170.28341621595052,
                54.09164457570465
              ],
              [
                -169.939989,
                55.410844
              ],
              [
                -167.91944878517435,
                55.261872873463616
              ],
              [
                -167.824854,
                55.623212
              ],
              [
                -163.863728,
                55.332027
              ],
              [
                -164.35160343492169,
                53.969912391959994
              ],
              [
                -164.85331,
                52.505068
              ],
              [
                -166.86018492639724,
                52.65391179399157
              ],
              [
                -166.93056336745337,
                52.446953891992436
              ],
              [
                -167.411151,
                50.974389
              ],
              [
                -169.4175294168463,
                51.1270214087156
              ],
              [
                -169.501424,
                50.869187
              ],
              [
                -171.50921928622296,
                51.02224089118472
              ],
              [
                -171.625948,
                50.661183
              ],
              [
                -173.63205850139394,
                50.814587249573925
              ],
              [
                -173.751031,
                50.444259
              ],
              [
                -175.75900389889108,
                50.59838709729972
              ],
              [
                -175.83966,
                50.346601
              ],
              [
                -179.372102,
                50.618178
              ],
              [
                -179.04811734543546,
                51.93844700256319
              ],
              [
                -179.04858299999967,
                51.93848199999448
              ]
            ]
          ],
          [
            [
              [
                -163.264707,
                57.256482
              ],
              [
                -159.22652036906092,
                56.96709865748615
              ],
              [
                -159.11628671667145,
                57.36433714790624
              ],
              [
                -159.11756,
                57.364425
              ],
              [
                -159.07855491003636,
                57.50030765767032
              ],
              [
                -159.059505,
                57.568956
              ],
              [
                -159.0588625698902,
                57.56891017896436
              ],
              [
                -158.90793510740704,
                58.09469860136695
              ],
              [
                -162.946956,
                58.369254
              ],
              [
                -162.72993996998323,
                59.10095584094857
              ],
              [
                -164.37974925114625,
                59.211508808384735
              ],
              [
                -164.532728,
                58.866838
              ],
              [
                -166.52186938863633,
                59.00044521925688
              ],
              [
                -166.626285,
                58.761491
              ],
              [
                -168.6246380370167,
                58.896091655362454
              ],
              [
                -168.772346,
                58.554781
              ],
              [
                -173.092708,
                58.8465
              ],
              [
                -172.80155046373082,
                59.81233149314983
              ],
              [
                -174.820072,
                59.946582
              ],
              [
                -174.343146,
                61.466803
              ],
              [
                -172.32851043912126,
                61.33087835676893
              ],
              [
                -172.217122,
                61.683115
              ],
              [
                -170.19960690982106,
                61.54739615848849
              ],
              [
                -170.15537927923566,
                61.686103325174734
              ],
              [
                -170.157588,
                61.686247
              ],
              [
                -170.11839334227665,
                61.802099015084316
              ],
              [
                -170.09018,
                61.890582
              ],
              [
                -170.08849631428362,
                61.89046899046397
              ],
              [
                -169.94386919345075,
                62.31795947915752
              ],
              [
                -173.977481,
                62.577442
              ],
              [
                -173.51549853430788,
                63.89118102753358
              ],
              [
                -173.51777,
                63.891325
              ],
              [
                -173.4752278021961,
                64.00569886396995
              ],
              [
                -173.443646,
                64.095508
              ],
              [
                -173.4418658845759,
                64.09539172481493
              ],
              [
                -173.029424685616,
                65.20423179468759
              ],
              [
                -173.032466,
                65.204422
              ],
              [
                -172.98526258807223,
                65.32296072731997
              ],
              [
                -172.953446,
                65.408499
              ],
              [
                -172.95125646425424,
                65.40835799997137
              ],
              [
                -172.428799,
                66.72037
              ],
              [
                -170.42157709346012,
                66.59275127542844
              ],
              [
                -170.36551797478063,
                66.73190677906113
              ],
              [
                -170.369072,
                66.732126
              ],
              [
                -170.31928336122806,
                66.84667492179557
              ],
              [
                -170.283278,
                66.936051
              ],
              [
                -170.2805123562728,
                66.93587552908477
              ],
              [
                -169.9465079902686,
                67.7043207194836
              ],
              [
                -171.955194,
                67.827201
              ],
              [
                -171.33775498895676,
                69.13589066781591
              ],
              [
                -171.341387,
                69.136111
              ],
              [
                -171.2924695094727,
                69.23187527203248
              ],
              [
                -171.241604,
                69.339687
              ],
              [
                -171.2375277200092,
                69.33943312946587
              ],
              [
                -170.569464,
                70.647281
              ],
              [
                -168.57753615389132,
                70.5240631066434
              ],
              [
                -168.401932,
                70.862519
              ],
              [
                -166.4011391718331,
                70.7389956161137
              ],
              [
                -166.227422,
                71.068542
              ],
              [
                -164.235595917065,
                70.94563307170947
              ],
              [
                -164.22314302448126,
                70.96908005127139
              ],
              [
                -164.229111,
                70.969439
              ],
              [
                -164.16747852712854,
                71.07388817701212
              ],
              [
                -164.114995,
                71.172707
              ],
              [
                -164.10937290548623,
                71.17236036346779
              ],
              [
                -163.339219,
                72.477548
              ],
              [
                -161.34475035638894,
                72.35514491411776
              ],
              [
                -161.145125,
                72.687295
              ],
              [
                -153.793143,
                72.236118
              ],
              [
                -154.30473563068514,
                71.71389856681141
              ],
              [
                -153.53257599513034,
                71.66636302616885
              ],
              [
                -153.341001,
                72.004059
              ],
              [
                -146.240473,
                71.567358
              ],
              [
                -146.91905915214042,
                70.82912293974914
              ],
              [
                -145.81379320651493,
                70.76090514220327
              ],
              [
                -145.51581,
                71.315638
              ],
              [
                -138.655972,
                70.892684
              ],
              [
                -139.00764553840784,
                70.48596997701262
              ],
              [
                -133.169614,
                70.124745
              ],
              [
                -134.28706627908323,
                68.74332054882665
              ],
              [
                -135.23564888367235,
                67.45253726692052
              ],
              [
                -136.0872632443604,
                66.16783075453321
              ],
              [
                -136.8739585176661,
                64.87165240719119
              ],
              [
                -137.60064837744304,
                63.57276723777886
              ],
              [
                -137.94106215293195,
                62.91647655597863
              ],
              [
                -133.966236,
                62.653372
              ],
              [
                -134.3260977045306,
                61.92125931851521
              ],
              [
                -133.07807467593068,
                61.83755516729045
              ],
              [
                -132.963776,
                62.18901
              ],
              [
                -128.19051,
                61.870117
              ],
              [
                -128.84018619719427,
                60.49380497443426
              ],
              [
                -129.4183010184267,
                59.18861304430988
              ],
              [
                -129.69256275521465,
                58.531759080913055
              ],
              [
                -125.696525,
                58.250917
              ],
              [
                -126.07972424056118,
                57.293567557132015
              ],
              [
                -124.080877,
                57.150674
              ],
              [
                -124.49109031115057,
                56.079917706178534
              ],
              [
                -122.490524,
                55.934155
              ],
              [
                -122.83862926008996,
                54.983270862604755
              ],
              [
                -120.844782,
                54.835559
              ],
              [
                -121.32382882378249,
                53.47475143287247
              ],
              [
                -121.6309633935797,
                52.56339272191589
              ],
              [
                -119.625943,
                52.408701
              ],
              [
                -119.96981232475318,
                51.352923013625706
              ],
              [
                -119.54328859066382,
                51.31933579761542
              ],
              [
                -119.454344,
                51.690125
              ],
              [
                -117.43478300039597,
                51.53160097521668
              ],
              [
                -117.372741,
                51.789762
              ],
              [
                -115.35164113153436,
                51.631396512538245
              ],
              [
                -115.261264,
                52.004282
              ],
              [
                -113.24070858604928,
                51.84652855903277
              ],
              [
                -113.179232,
                52.099654
              ],
              [
                -111.16451008663539,
                51.94274732486882
              ],
              [
                -111.073269,
                52.316982
              ],
              [
                -109.05258175653714,
                52.16017279069677
              ],
              [
                -108.962968,
                52.526064
              ],
              [
                -106.9443091884442,
                52.369894592168095
              ],
              [
                -106.880941,
                52.628137
              ],
              [
                -103.190707,
                52.343203
              ],
              [
                -103.49869293033109,
                51.39559504199409
              ],
              [
                -103.07581137546305,
                51.362311209480765
              ],
              [
                -103.014329,
                51.619003
              ],
              [
                -100.99537362694413,
                51.460359891728785
              ],
              [
                -100.905264,
                51.835049
              ],
              [
                -98.88349424888956,
                51.67678267522189
              ],
              [
                -98.795,
                52.04163
              ],
              [
                -96.77734070320908,
                51.88420093494029
              ],
              [
                -96.713112,
                52.146054
              ],
              [
                -94.69618071880768,
                51.989184124176944
              ],
              [
                -94.606395,
                52.357161
              ],
              [
                -90.93956,
                52.072807
              ],
              [
                -91.28155348726982,
                51.011868762321534
              ],
              [
                -89.276156,
                50.853083
              ],
              [
                -89.69584513551176,
                49.504820742708894
              ],
              [
                -90.142498,
                48.018333
              ],
              [
                -92.15128300812098,
                48.17913829329691
              ],
              [
                -92.229208,
                47.919151
              ],
              [
                -94.23861601899044,
                48.080303452668176
              ],
              [
                -94.29798390185735,
                47.881119219701354
              ],
              [
                -94.729261,
                46.386346
              ],
              [
                -96.73790736454445,
                46.551774603601636
              ],
              [
                -96.76400719338979,
                46.461107949143404
              ],
              [
                -97.13175338931526,
                45.14441842121095
              ],
              [
                -97.49039634690168,
                43.824170316743945
              ],
              [
                -97.83939991375586,
                42.50504700080462
              ],
              [
                -97.839389,
                42.505046
              ],
              [
                -98.18155710310566,
                41.17980185809352
              ],
              [
                -98.181516,
                41.179798
              ],
              [
                -98.51616230313401,
                39.85383356233896
              ],
              [
                -98.516094,
                39.853827
              ],
              [
                -98.84396045883906,
                38.52718471350116
              ],
              [
                -101.725605,
                38.810487
              ],
              [
                -101.80832365329272,
                38.40395331045967
              ],
              [
                -103.825597,
                38.602935
              ],
              [
                -104.13655,
                37.072047
              ],
              [
                -104.13605036187022,
                37.07199828648421
              ],
              [
                -104.403002,
                35.745541
              ],
              [
                -104.40262593132547,
                35.745503492191894
              ],
              [
                -104.44681319154815,
                35.524619107038966
              ],
              [
                -106.461934,
                35.73338
              ],
              [
                -106.767996,
                34.201639
              ],
              [
                -106.76757724909528,
                34.20159612398846
              ],
              [
                -106.78879368891761,
                34.094443966278455
              ],
              [
                -108.804212,
                34.308291
              ],
              [
                -108.88912043683881,
                33.87925931923791
              ],
              [
                -110.20077850060053,
                34.018904732207254
              ],
              [
                -109.966344,
                35.03124
              ],
              [
                -111.97487346660006,
                35.24079026665356
              ],
              [
                -111.761651,
                36.149276
              ],
              [
                -113.76546643512938,
                36.354352227434575
              ],
              [
                -113.550121,
                37.258292
              ],
              [
                -116.382403,
                37.542917
              ],
              [
                -116.44267949073974,
                37.24403339552847
              ],
              [
                -118.460005,
                37.447063
              ],
              [
                -118.54450747061455,
                37.027731911898826
              ],
              [
                -119.74971291871361,
                37.14946333039447
              ],
              [
                -119.502762,
                38.173828
              ],
              [
                -121.51187381233545,
                38.37254541231225
              ],
              [
                -121.287599,
                39.288113
              ],
              [
                -124.199639,
                39.57055
              ],
              [
                -124.512842,
                38.03998
              ],
              [
                -124.51231152516962,
                38.039929143120084
              ],
              [
                -124.57292442121913,
                37.74073554612236
              ],
              [
                -126.59135,
                37.934645
              ],
              [
                -126.32024359228167,
                39.260357732937436
              ],
              [
                -126.320811,
                39.260411
              ],
              [
                -126.04677632177108,
                40.58564898827184
              ],
              [
                -126.047387,
                40.585705
              ],
              [
                -126.02197962239583,
                40.705566395105976
              ],
              [
                -126.004407,
                40.790548
              ],
              [
                -126.00397452416938,
                40.790506927972615
              ],
              [
                -125.84927008789019,
                41.5203378397022
              ],
              [
                -127.86833,
                41.701959
              ],
              [
                -127.58783719163115,
                43.02628820913664
              ],
              [
                -127.588529,
                43.026349
              ],
              [
                -127.30396485339134,
                44.35016695309405
              ],
              [
                -127.304711,
                44.350231
              ],
              [
                -127.01553377708984,
                45.67351731931558
              ],
              [
                -127.016329,
                45.673584
              ],
              [
                -126.98051534169242,
                45.83376305381325
              ],
              [
                -126.970765,
                45.878381
              ],
              [
                -126.97054372766146,
                45.87836178446377
              ],
              [
                -126.72061538163577,
                46.99618352843909
              ],
              [
                -126.721256,
                46.996236
              ],
              [
                -126.67712590003246,
                47.1906932306934
              ],
              [
                -126.674819,
                47.201011
              ],
              [
                -126.67478504046107,
                47.20100811939821
              ],
              [
                -126.50722774232707,
                47.93934155171723
              ],
              [
                -128.528283,
                48.10171
              ],
              [
                -128.28222544536823,
                49.16655429960599
              ],
              [
                -130.304506,
                49.325587
              ],
              [
                -130.0799167855303,
                50.276885812148464
              ],
              [
                -132.099088,
                50.432756
              ],
              [
                -131.84209137700773,
                51.49853442799294
              ],
              [
                -132.25587031169363,
                51.52982636165346
              ],
              [
                -132.374393,
                51.168882
              ],
              [
                -135.973112,
                51.441862
              ],
              [
                -135.64685027296403,
                52.76196124146119
              ],
              [
                -135.647831,
                52.762034
              ],
              [
                -135.6076466854201,
                52.9205842790129
              ],
              [
                -135.596246,
                52.966713
              ],
              [
                -135.59596098161188,
                52.96669111494199
              ],
              [
                -135.40572398480558,
                53.71728569985773
              ],
              [
                -137.426412,
                53.86452
              ],
              [
                -137.08313887121,
                55.18356425833058
              ],
              [
                -137.084509,
                55.183662
              ],
              [
                -137.0428694787142,
                55.33830142387927
              ],
              [
                -137.02986,
                55.388291
              ],
              [
                -137.0294176517031,
                55.388258356977666
              ],
              [
                -136.72951241466845,
                56.50203612486135
              ],
              [
                -136.731013,
                56.502141
              ],
              [
                -136.695075574318,
                56.62992647968723
              ],
              [
                -136.674394,
                56.706733
              ],
              [
                -136.67349339160677,
                56.70666791339077
              ],
              [
                -136.52588265553894,
                57.23153880654611
              ],
              [
                -140.562227,
                57.509486
              ],
              [
                -140.35110318531886,
                58.241625853796684
              ],
              [
                -142.10735206182375,
                58.36075331095661
              ],
              [
                -142.209201,
                58.12082
              ],
              [
                -146.20726469997305,
                58.392509047851924
              ],
              [
                -146.496289,
                57.698877
              ],
              [
                -150.49447619775125,
                57.9721591251208
              ],
              [
                -150.69132272134044,
                57.498916827599594
              ],
              [
                -151.191523215385,
                56.21477433000287
              ],
              [
                -151.73019,
                54.760484
              ],
              [
                -155.637851,
                55.039791
              ],
              [
                -155.37722312856422,
                56.01158785042419
              ],
              [
                -155.41816880479647,
                55.9051907942592
              ],
              [
                -155.9047019399646,
                54.57703896866724
              ],
              [
                -156.416069,
                53.133088
              ],
              [
                -160.169583,
                53.408402
              ],
              [
                -159.83000825626294,
                54.72770935544571
              ],
              [
                -159.831339,
                54.727805
              ],
              [
                -159.78969257752377,
                54.88434282858053
              ],
              [
                -159.777316,
                54.932428
              ],
              [
                -159.7769077376088,
                54.93239764241667
              ],
              [
                -159.4854260433435,
                56.02799982810929
              ],
              [
                -159.65030643194243,
                55.59433814786618
              ],
              [
                -160.12519828902504,
                54.28322678872146
              ],
              [
                -160.631678,
                52.819818
              ],
              [
                -164.363415,
                53.095191
              ],
              [
                -164.02632206523705,
                54.41466290023914
              ],
              [
                -164.027625,
                54.414757
              ],
              [
                -163.9860118479709,
                54.57244787135589
              ],
              [
                -163.974018,
                54.619395
              ],
              [
                -163.97363057764986,
                54.61936605010982
              ],
              [
                -163.67960165544253,
                55.733573330401384
              ],
              [
                -163.681025,
                55.733674
              ],
              [
                -163.63928972116662,
                55.886333304881674
              ],
              [
                -163.625582,
                55.938278
              ],
              [
                -163.62509831886436,
                55.93824261689092
              ],
              [
                -163.264707,
                57.256482
              ]
            ]
          ],
          [
            [
              [
                -91.90214356900948,
                41.5956246619066
              ],
              [
                -91.902115,
                41.595622
              ],
              [
                -92.1359065054166,
                40.67570403966312
              ],
              [
                -91.0766726963258,
                40.57511180249568
              ],
              [
                -91.05967715017881,
                40.65727196800358
              ],
              [
                -91.060289,
                40.657328
              ],
              [
                -91.02099586866535,
                40.84426569351951
              ],
              [
                -91.017292,
                40.862171
              ],
              [
                -91.01723345241146,
                40.86216544832841
              ],
              [
                -90.78186401028692,
                41.98193929025022
              ],
              [
                -90.782375,
                41.981985
              ],
              [
                -90.75520647225937,
                42.10876294885199
              ],
              [
                -90.7388,
                42.186817
              ],
              [
                -90.7384857196351,
                42.1867878878993
              ],
              [
                -90.454759,
                43.510757
              ],
              [
                -87.364405,
                43.231187
              ],
              [
                -87.71088123253446,
                41.90633789310052
              ],
              [
                -87.71085,
                41.906335
              ],
              [
                -87.94545838554632,
                40.987777942844566
              ],
              [
                -85.937459,
                40.798143
              ],
              [
                -86.16886936813472,
                39.875088345628384
              ],
              [
                -87.088773,
                39.963718
              ],
              [
                -87.402978,
                38.433289
              ],
              [
                -87.40243875413464,
                38.433237644862274
              ],
              [
                -87.44393914518027,
                38.228988045446506
              ],
              [
                -89.461446,
                38.428541
              ],
              [
                -89.54614191828557,
                38.01095116150775
              ],
              [
                -90.71481384648023,
                38.12699345159358
              ],
              [
                -90.462542,
                39.159025
              ],
              [
                -93.369182,
                39.44152
              ],
              [
                -93.41105926069216,
                39.23662379690661
              ],
              [
                -93.411626,
                39.236677
              ],
              [
                -93.22057400067929,
                40.1611589544004
              ],
              [
                -95.237632,
                40.346957
              ],
              [
                -94.9599628188154,
                41.67167962332184
              ],
              [
                -94.960456,
                41.671724
              ],
              [
                -94.6801165961213,
                42.99606131469059
              ],
              [
                -94.680807,
                42.996122
              ],
              [
                -94.352397,
                44.524819
              ],
              [
                -91.204288,
                44.244884
              ],
              [
                -91.5576295671945,
                42.92001974090131
              ],
              [
                -91.90214356900948,
                41.5956246619066
              ]
            ]
          ],
          [
            [
              [
                -82.90825051304482,
                40.28019968315402
              ],
              [
                -82.63127,
                41.605077
              ],
              [
                -79.629817,
                41.324103
              ],
              [
                -79.96522074014301,
                39.99819401185768
              ],
              [
                -79.965158,
                39.998188
              ],
              [
                -80.2206646691523,
                38.966539395671006
              ],
              [
                -79.08888334594235,
                38.8557503039596
              ],
              [
                -79.316738,
                37.739304
              ],
              [
                -79.31621557937022,
                37.73925367199132
              ],
              [
                -79.3594216589552,
                37.525471316048375
              ],
              [
                -80.54313695056494,
                37.64392351753969
              ],
              [
                -80.293637,
                38.671591
              ],
              [
                -83.181058,
                38.954714
              ],
              [
                -83.26509223789854,
                38.54212465651535
              ],
              [
                -84.4125489739695,
                38.65502845572615
              ],
              [
                -84.15958,
                39.6815
              ],
              [
                -85.07128179085413,
                39.769339434278066
              ],
              [
                -85.010292,
                40.066196
              ],
              [
                -82.99230665404076,
                39.87215253183366
              ],
              [
                -82.95048258664833,
                40.075322544295176
              ],
              [
                -82.951071,
                40.075377
              ],
              [
                -82.9119427224072,
                40.262538785715826
              ],
              [
                -82.908306,
                40.280205
              ],
              [
                -82.90825051304482,
                40.28019968315402
              ]
            ]
          ],
          [
            [
              [
                -78.21346044243467,
                43.03937617863228
              ],
              [
                -78.214153,
                43.039437
              ],
              [
                -77.92961634386326,
                44.36327503308116
              ],
              [
                -77.930362,
                44.363339
              ],
              [
                -77.64121067161511,
                45.68664735076661
              ],
              [
                -77.642006,
                45.686714
              ],
              [
                -77.60621930770488,
                45.846786210670054
              ],
              [
                -77.596446,
                45.891514
              ],
              [
                -77.5962240054294,
                45.89149473299886
              ],
              [
                -77.34631267306999,
                47.0093365025699
              ],
              [
                -77.346954,
                47.009389
              ],
              [
                -77.30280411055185,
                47.20394827970538
              ],
              [
                -77.30052,
                47.214165
              ],
              [
                -77.30048635350717,
                47.2141621476625
              ],
              [
                -77.000431,
                48.536443
              ],
              [
                -74.97990635972546,
                48.36909181723586
              ],
              [
                -74.894682,
                48.743342
              ],
              [
                -72.87579752242559,
                48.576670155869714
              ],
              [
                -72.813875,
                48.848204
              ],
              [
                -69.406928,
                48.567532
              ],
              [
                -69.79986658636541,
                47.22747376304813
              ],
              [
                -70.06122558871137,
                46.307681580795034
              ],
              [
                -69.29006294049738,
                46.24140689472077
              ],
              [
                -69.229559,
                46.514721
              ],
              [
                -67.21031236234982,
                46.34148091096117
              ],
              [
                -67.124182,
                46.729381
              ],
              [
                -65.1040657929557,
                46.556694785602446
              ],
              [
                -65.044363,
                46.825178
              ],
              [
                -61.768175,
                46.545538
              ],
              [
                -62.140725951171525,
                45.21355014365673
              ],
              [
                -62.4998872494351,
                43.89314583940534
              ],
              [
                -62.900723,
                42.379973
              ],
              [
                -64.91171422974449,
                42.55779946436167
              ],
              [
                -64.984082,
                42.284069
              ],
              [
                -66.99422462672295,
                42.462091539548815
              ],
              [
                -67.04646911846959,
                42.263648759808525
              ],
              [
                -67.04645,
                42.263647
              ],
              [
                -67.437097,
                40.743644
              ],
              [
                -69.44745015515868,
                40.92656741478718
              ],
              [
                -69.47011050713134,
                40.83824376739133
              ],
              [
                -69.47006,
                40.838239
              ],
              [
                -69.851613,
                39.317426
              ],
              [
                -71.86219604897052,
                39.50504613225285
              ],
              [
                -71.91338004047992,
                39.30028795292782
              ],
              [
                -74.825354,
                39.582572
              ],
              [
                -74.8869486420023,
                39.281527759426766
              ],
              [
                -76.904029,
                39.477467
              ],
              [
                -76.98665514798407,
                39.07336616463667
              ],
              [
                -79.00187924971428,
                39.26977246453629
              ],
              [
                -78.728323,
                40.595072
              ],
              [
                -76.71274692384745,
                40.403175535123296
              ],
              [
                -76.630126,
                40.802787
              ],
              [
                -74.61261522560109,
                40.61128722671799
              ],
              [
                -74.5936472979533,
                40.702960860539235
              ],
              [
                -74.594261,
                40.703017
              ],
              [
                -74.55495397804712,
                40.88996902011648
              ],
              [
                -74.551252,
                40.907861
              ],
              [
                -74.55119332340695,
                40.907855442109614
              ],
              [
                -74.37585509059325,
                41.741798976867216
              ],
              [
                -75.38382461549214,
                41.832034923782004
              ],
              [
                -75.484708,
                41.444491
              ],
              [
                -78.493924,
                41.715027
              ],
              [
                -78.21346044243467,
                43.03937617863228
              ]
            ]
          ],
          [
            [
              [
                -88.657192,
                51.444943
              ],
              [
                -85.06109,
                51.161617
              ],
              [
                -85.48479544029081,
                49.81238355127456
              ],
              [
                -85.88320847163033,
                48.497311217326605
              ],
              [
                -86.320155,
                47.005827
              ],
              [
                -89.62866,
                47.275504
              ],
              [
                -89.32732409018965,
                48.59757761803895
              ],
              [
                -89.328258,
                48.597652
              ],
              [
                -89.28462159305872,
                48.78492948365871
              ],
              [
                -89.280638,
                48.802407
              ],
              [
                -89.28055093461374,
                48.80239981918455
              ],
              [
                -89.02034321661239,
                49.91915186344494
              ],
              [
                -89.021347,
                49.91923
              ],
              [
                -88.97836085894821,
                50.09933054570871
              ],
              [
                -88.97262,
                50.123969
              ],
              [
                -88.97248282672511,
                50.12395794386939
              ],
              [
                -88.657192,
                51.444943
              ]
            ]
          ],
          [
            [
              [
                174.64838699999817,
                51.41230899999423
              ],
              [
                175.0250609999982,
                52.93725299999492
              ],
              [
                177.04580016363954,
                52.78206161211738
              ],
              [
                177.13646299999897,
                53.147357999995045
              ],
              [
                180.0,
                52.968090592434635
              ],
              [
                180.0,
                51.598170879436374
              ],
              [
                180.0,
                51.3934936656684
              ],
              [
                179.99378753143222,
                51.39393255580956
              ],
              [
                179.952301,
                50.03004
              ],
              [
                176.441376,
                50.301631
              ],
              [
                176.67164348580215,
                51.258808895698614
              ],
              [
                174.64838699999817,
                51.41230899999423
              ]
            ]
          ],
          [
            [
              [
                174.50555590837658,
                52.29955550012461
              ],
              [
                174.02689,
                50.826371
              ],
              [
                170.457633,
                51.09856
              ],
              [
                170.78163490872805,
                52.418903489700035
              ],
              [
                170.780676,
                52.418975
              ],
              [
                170.820986023576,
                52.579263620002685
              ],
              [
                170.831883,
                52.62367
              ],
              [
                170.83214836629708,
                52.62364951591722
              ],
              [
                171.164087,
                53.943569
              ],
              [
                174.96484799999817,
                53.65658199999526
              ],
              [
                174.50555590837658,
                52.29955550012461
              ]
            ]
          ]
        ]
      }
    },
    {
      "type": "Feature",
      "properties": {
        "priority": 2.0,
        "orbit_pass": "DESCENDING"
      },
      "geometry": {
        "type": "MultiPolygon",
        "coordinates": [
          [
            [
              [
                -100.195102,
                15.101629
              ],
              [
                -100.00734723625311,
                16.06500069341326
              ],
              [
                -102.012867,
                16.332801
              ],
              [
                -101.84683990174874,
                17.187226584695345
              ],
              [
                -103.50318383115197,
                17.405202767149994
              ],
              [
                -103.57985,
                17.036203
              ],
              [
                -105.930078,
                17.345969
              ],
              [
                -105.7631023707062,
                18.207881114211343
              ],
              [
                -107.76916,
                18.468407
              ],
              [
                -107.51189320867253,
                19.799133462387346
              ],
              [
                -107.512015,
                19.799149
              ],
              [
                -107.25480004964673,
                21.129615357071298
              ],
              [
                -107.254893,
                21.129627
              ],
              [
                -107.08783355174309,
                21.99460172169487
              ],
              [
                -108.67662362711016,
                22.1905376022798
              ],
              [
                -108.427407,
                23.372331
              ],
              [
                -108.42749986682979,
                23.37234261754101
              ],
              [
                -108.144585,
                24.704822
              ],
              [
                -108.14469097485342,
                24.704835004707913
              ],
              [
                -108.1143616993191,
                24.84658662240543
              ],
              [
                -106.107694,
                24.608505
              ],
              [
                -106.01026098031433,
                25.063590006377403
              ],
              [
                -104.47345200000511,
                24.881860042404185
              ],
              [
                -104.644228,
                23.998142
              ],
              [
                -102.185866,
                23.702521
              ],
              [
                -102.11213810646072,
                24.048665875160612
              ],
              [
                -100.105962,
                23.807851
              ],
              [
                -100.0094697885234,
                24.26064853429258
              ],
              [
                -98.003529,
                24.020563
              ],
              [
                -97.93101587301972,
                24.36034102635524
              ],
              [
                -95.924559,
                24.120572
              ],
              [
                -95.88295105023104,
                24.315423002092192
              ],
              [
                -95.88287,
                24.315413
              ],
              [
                -96.206615,
                22.787985
              ],
              [
                -96.20798882048106,
                22.788152381943988
              ],
              [
                -96.44741595089681,
                21.650209885351664
              ],
              [
                -96.447331,
                21.650199
              ],
              [
                -96.6265390859416,
                20.793580727961846
              ],
              [
                -94.623853,
                20.53299
              ],
              [
                -94.82654708766695,
                19.56041295576316
              ],
              [
                -93.19927180385578,
                19.345108250630258
              ],
              [
                -93.14536506463745,
                19.62392066452488
              ],
              [
                -93.145485,
                19.623936
              ],
              [
                -92.848694,
                21.159124
              ],
              [
                -90.84194751236544,
                20.89913375551542
              ],
              [
                -90.79058869817538,
                21.164787317521967
              ],
              [
                -90.790682,
                21.164799
              ],
              [
                -90.53375006792821,
                22.49505315654317
              ],
              [
                -90.533879,
                22.495069
              ],
              [
                -90.237536,
                24.029824
              ],
              [
                -87.780868,
                23.724042
              ],
              [
                -87.98703105898568,
                22.748145642130236
              ],
              [
                -85.982971,
                22.494344
              ],
              [
                -86.1636266437671,
                21.634225928640266
              ],
              [
                -84.160626,
                21.376544
              ],
              [
                -84.480254,
                19.848389
              ],
              [
                -86.4840636407226,
                20.102818433182023
              ],
              [
                -86.54149637508216,
                19.8279551724769
              ],
              [
                -86.541457,
                19.82795
              ],
              [
                -86.81883139079049,
                18.494342528455814
              ],
              [
                -86.818805,
                18.494339
              ],
              [
                -86.99434433839093,
                17.647322727416455
              ],
              [
                -85.34263116072914,
                17.423275210123524
              ],
              [
                -85.31039403838983,
                17.589158983262536
              ],
              [
                -85.310417,
                17.589162
              ],
              [
                -85.013243,
                19.12468
              ],
              [
                -82.639845,
                18.808644
              ],
              [
                -82.91629605685883,
                17.474814155691238
              ],
              [
                -82.916258,
                17.474809
              ],
              [
                -83.09007347596,
                16.63367089705258
              ],
              [
                -81.089929,
                16.358871
              ],
              [
                -81.36506147983822,
                15.024665067019749
              ],
              [
                -81.365061,
                15.024665
              ],
              [
                -81.6604172935184,
                13.590433010925837
              ],
              [
                -81.954343,
                12.160913
              ],
              [
                -81.9543460758205,
                12.160913430465005
              ],
              [
                -82.2286,
                10.826274
              ],
              [
                -82.22865256355772,
                10.8262814708218
              ],
              [
                -82.35926063357797,
                10.19106237384853
              ],
              [
                -80.64029493717433,
                9.936324700870186
              ],
              [
                -80.560241,
                10.337952
              ],
              [
                -78.56262917238665,
                10.04232429050393
              ],
              [
                -78.461383,
                10.550695
              ],
              [
                -76.18326,
                10.214289
              ],
              [
                -76.49783,
                8.684647
              ],
              [
                -76.49794042722408,
                8.684663075775143
              ],
              [
                -76.772917,
                7.349869
              ],
              [
                -76.7730672352163,
                7.349891185228698
              ],
              [
                -77.048652,
                6.015095
              ],
              [
                -79.04344408324562,
                6.3137616093339
              ],
              [
                -79.149165,
                5.801812
              ],
              [
                -81.14517890916356,
                6.101267227441673
              ],
              [
                -81.228885,
                5.696044
              ],
              [
                -83.48216,
                6.034526
              ],
              [
                -83.31496513815262,
                6.860908687853661
              ],
              [
                -85.311557,
                7.157317
              ],
              [
                -85.14665716769447,
                7.977759745443331
              ],
              [
                -87.144477,
                8.270916
              ],
              [
                -86.85403657822185,
                9.72339714114958
              ],
              [
                -86.68993772063489,
                10.549423050691196
              ],
              [
                -88.690707,
                10.834841
              ],
              [
                -88.52576718029056,
                11.669294060648001
              ],
              [
                -90.526731,
                11.951069
              ],
              [
                -90.34005098516748,
                12.901458548952418
              ],
              [
                -92.343253,
                13.17956
              ],
              [
                -92.17739384830693,
                14.025970117783645
              ],
              [
                -94.180055,
                14.300203
              ],
              [
                -94.01554559858029,
                15.142419859817702
              ],
              [
                -95.69426452894497,
                15.369193989221515
              ],
              [
                -95.769861,
                15.002771
              ],
              [
                -97.77106859905805,
                15.27341191646165
              ],
              [
                -97.871467,
                14.786542
              ],
              [
                -100.195102,
                15.101629
              ]
            ],
            [
              [
                -101.496842,
                18.994589
              ],
              [
                -99.4890842416381,
                18.73564290048715
              ],
              [
                -99.677156,
                17.76359
              ],
              [
                -97.320828,
                17.454739
              ],
              [
                -97.003814,
                18.983406
              ],
              [
                -97.00386336584165,
                18.983412557901485
              ],
              [
                -96.726181,
                20.316936
              ],
              [
                -99.122849,
                20.629697
              ],
              [
                -99.19288699980737,
                20.267572852053316
              ],
              [
                -101.199859,
                20.529861
              ],
              [
                -101.496842,
                18.994589
              ]
            ]
          ],
          [
            [
              [
                -109.265893,
                19.372919
              ],
              [
                -109.583371,
                17.844351
              ],
              [
                -111.945059,
                18.152384
              ],
              [
                -111.648078,
                19.687809
              ],
              [
                -109.265893,
                19.372919
              ]
            ]
          ],
          [
            [
              [
                -90.71481384648023,
                38.12699345159358
              ],
              [
                -89.54614191828557,
                38.01095116150775
              ],
              [
                -89.461446,
                38.428541
              ],
              [
                -87.44393914518027,
                38.228988045446506
              ],
              [
                -87.40243875413464,
                38.433237644862274
              ],
              [
                -87.402978,
                38.433289
              ],
              [
                -87.088773,
                39.963718
              ],
              [
                -84.15958,
                39.6815
              ],
              [
                -84.4125489739695,
                38.65502845572615
              ],
              [
                -83.26509223789854,
                38.54212465651535
              ],
              [
                -83.181058,
                38.954714
              ],
              [
                -80.293637,
                38.671591
              ],
              [
                -80.54313695056494,
                37.64392351753969
              ],
              [
                -79.3594216589552,
                37.525471316048375
              ],
              [
                -79.31621557937022,
                37.73925367199132
              ],
              [
                -79.316738,
                37.739304
              ],
              [
                -79.004337,
                39.270012
              ],
              [
                -76.98665514798407,
                39.07336616463667
              ],
              [
                -76.904029,
                39.477467
              ],
              [
                -74.8869486420023,
                39.281527759426766
              ],
              [
                -74.825354,
                39.582572
              ],
              [
                -71.913298,
                39.30028
              ],
              [
                -72.286003,
                37.778643
              ],
              [
                -74.29580843727624,
                37.97122243092358
              ],
              [
                -74.3210527872029,
                37.86800942129065
              ],
              [
                -74.320958,
                37.868
              ],
              [
                -74.5653764650578,
                36.849447219062974
              ],
              [
                -72.557128,
                36.645666
              ],
              [
                -72.87079575072894,
                35.31744897458617
              ],
              [
                -72.87069,
                35.317438
              ],
              [
                -73.224585,
                33.793883
              ],
              [
                -75.23385454049891,
                33.99996922110786
              ],
              [
                -75.26094693983968,
                33.88320196552858
              ],
              [
                -75.260825,
                33.883189
              ],
              [
                -75.609204,
                32.359017
              ],
              [
                -77.61823148232216,
                32.57010604466519
              ],
              [
                -77.66938151756068,
                32.345772901916376
              ],
              [
                -77.669254,
                32.345759
              ],
              [
                -78.012211,
                30.820949
              ],
              [
                -80.02040876853867,
                31.037270007920295
              ],
              [
                -80.07405237403228,
                30.79825779715265
              ],
              [
                -80.07392,
                30.798243
              ],
              [
                -80.27010261739578,
                29.913467678383153
              ],
              [
                -78.263746,
                29.685209
              ],
              [
                -78.55606252024144,
                28.354228650911647
              ],
              [
                -78.555945,
                28.354215
              ],
              [
                -78.84537290507694,
                27.022797436318594
              ],
              [
                -78.845268,
                27.022785
              ],
              [
                -79.13210668296087,
                25.690955208956908
              ],
              [
                -79.132014,
                25.690944
              ],
              [
                -79.41654612851282,
                24.358727005188413
              ],
              [
                -79.416465,
                24.358717
              ],
              [
                -79.741981,
                22.831581
              ],
              [
                -82.182082,
                23.12859
              ],
              [
                -82.0137350205497,
                24.000234051496854
              ],
              [
                -84.024355,
                24.241126
              ],
              [
                -83.7673596822297,
                25.570791586911806
              ],
              [
                -83.767559,
                25.570815
              ],
              [
                -83.57420846270112,
                26.569677100464805
              ],
              [
                -85.587244,
                26.801769
              ],
              [
                -85.32945111829979,
                28.130844420539592
              ],
              [
                -85.329713,
                28.130874
              ],
              [
                -85.15646983652286,
                29.021588926872592
              ],
              [
                -86.6044760910545,
                29.182270152112643
              ],
              [
                -86.339452,
                30.382055
              ],
              [
                -88.34353875179835,
                30.607564305499295
              ],
              [
                -88.143969,
                31.501628
              ],
              [
                -90.15073928990486,
                31.723445378942092
              ],
              [
                -89.949968,
                32.61346
              ],
              [
                -89.95009099132669,
                32.61347335346651
              ],
              [
                -89.646021,
                33.942827
              ],
              [
                -91.65467695029679,
                34.15619173597566
              ],
              [
                -91.418152,
                35.176083
              ],
              [
                -93.4263900476446,
                35.38501396903705
              ],
              [
                -93.213825,
                36.289209
              ],
              [
                -93.2139436992666,
                36.28922111827927
              ],
              [
                -92.896461,
                37.616978
              ],
              [
                -92.89656108444849,
                37.61698798867143
              ],
              [
                -92.57321,
                38.944104
              ],
              [
                -93.45330468561636,
                39.02992624740197
              ],
              [
                -93.369182,
                39.44152
              ],
              [
                -90.462542,
                39.159025
              ],
              [
                -90.71481384648023,
                38.12699345159358
              ]
            ]
          ],
          [
            [
              [
                144.904173,
                16.649291
              ],
              [
                147.242311,
                16.327881
              ],
              [
                146.9671355306802,
                14.99358606558588
              ],
              [
                146.967136,
                14.993586
              ],
              [
                146.67170021355525,
                13.559116810547001
              ],
              [
                146.37775,
                12.129659
              ],
              [
                144.083182,
                12.450956
              ],
              [
                144.3443331830697,
                13.782347147790649
              ],
              [
                144.344327,
                13.782348
              ],
              [
                144.61453713973094,
                15.163454721665513
              ],
              [
                144.904173,
                16.649291
              ]
            ]
          ],
          [
            [
              [
                -64.27234250754583,
                18.104515136843332
              ],
              [
                -62.270742,
                17.834621
              ],
              [
                -62.586968,
                16.305734
              ],
              [
                -64.5894343243949,
                16.572127564991558
              ],
              [
                -64.666017,
                16.20179
              ],
              [
                -67.005642,
                16.513503
              ],
              [
                -66.83920776971483,
                17.370265318778884
              ],
              [
                -68.844811,
                17.63358
              ],
              [
                -68.547677,
                19.169116
              ],
              [
                -66.54244622804332,
                18.902292432969887
              ],
              [
                -66.450028,
                19.379952
              ],
              [
                -64.073203,
                19.064494
              ],
              [
                -64.27234250754583,
                18.104515136843332
              ]
            ]
          ]
        ]
      }
    },
    {
      "type": "Feature",
      "properties": {
        "priority": 1.0,
        "orbit_pass": "DESCENDING"
      },
      "geometry": {
        "type": "MultiPolygon",
        "coordinates": [
          [
            [
              [
                -156.98049608953517,
                19.301153492225318
              ],
              [
                -158.987848,
                19.558146
              ],
              [
                -158.7984947739037,
                20.537212794134525
              ],
              [
                -160.4109280511417,
                20.740188039096033
              ],
              [
                -160.5090080000014,
                20.27177299999891
              ],
              [
                -162.90605100000153,
                20.574379999998918
              ],
              [
                -162.6490288323307,
                21.904775861542664
              ],
              [
                -162.64915100000152,
                21.904790999998987
              ],
              [
                -162.35279600000158,
                23.43969499999908
              ],
              [
                -160.34435403062042,
                23.187587632351523
              ],
              [
                -160.25403700000146,
                23.65530899999909
              ],
              [
                -157.80541300000132,
                23.34885299999908
              ],
              [
                -158.01181793091814,
                22.369967661312153
              ],
              [
                -156.007904,
                22.114757
              ],
              [
                -156.18726302478902,
                21.25946143857833
              ],
              [
                -154.18462400000115,
                21.000473999998967
              ],
              [
                -154.3643410446923,
                20.139918653954812
              ],
              [
                -152.362386000001,
                19.877001999998896
              ],
              [
                -152.68043200000102,
                18.34850499999881
              ],
              [
                -154.6832137302407,
                18.608063297445025
              ],
              [
                -154.78083100000117,
                18.138519999998795
              ],
              [
                -157.14588500000121,
                18.445809999998815
              ],
              [
                -156.98049608953517,
                19.301153492225318
              ]
            ]
          ],
          [
            [
              [
                -116.900919,
                24.441518
              ],
              [
                -116.90042510058404,
                24.444063557167073
              ],
              [
                -116.893446,
                24.48004
              ],
              [
                -116.89344484197434,
                24.480039804066557
              ],
              [
                -116.86867300240934,
                24.60771384398063
              ],
              [
                -116.868674,
                24.607714
              ],
              [
                -116.86356950796977,
                24.634017249953747
              ],
              [
                -116.861198,
                24.64624
              ],
              [
                -116.86119753751504,
                24.646239921942325
              ],
              [
                -116.8364229083181,
                24.773902627735453
              ],
              [
                -116.837669,
                24.774097
              ],
              [
                -116.80541446126618,
                24.940282916181033
              ],
              [
                -116.805415,
                24.940283
              ],
              [
                -116.80258912242039,
                24.95483998452064
              ],
              [
                -116.797932,
                24.978835
              ],
              [
                -116.79793111404456,
                24.978834851217286
              ],
              [
                -116.77315510650573,
                25.106463861344142
              ],
              [
                -116.773156,
                25.106464
              ],
              [
                -116.76900081788025,
                25.12786390912102
              ],
              [
                -116.76567,
                25.145022
              ],
              [
                -116.76566928527735,
                25.145021880271525
              ],
              [
                -116.74088974648393,
                25.27264080597873
              ],
              [
                -116.740891,
                25.272641
              ],
              [
                -116.73518638428028,
                25.30201411124553
              ],
              [
                -116.733402,
                25.311204
              ],
              [
                -116.733401608727,
                25.31120393461849
              ],
              [
                -116.70861858178299,
                25.43881193543625
              ],
              [
                -116.708619,
                25.438812
              ],
              [
                -116.7064242695674,
                25.450110466307084
              ],
              [
                -116.701128,
                25.477381
              ],
              [
                -116.70112699291306,
                25.477380832138632
              ],
              [
                -116.67634085106017,
                25.60497982308938
              ],
              [
                -116.676342,
                25.60498
              ],
              [
                -116.67206252451548,
                25.627004636523505
              ],
              [
                -116.668848,
                25.643553
              ],
              [
                -116.66884713873833,
                25.643552856809038
              ],
              [
                -116.63656,
                25.809721
              ],
              [
                -116.251343,
                25.745837
              ],
              [
                -115.87573045140614,
                25.68255514502163
              ],
              [
                -115.864413,
                25.738907
              ],
              [
                -115.433318,
                25.665504
              ],
              [
                -115.00184193580043,
                25.590753875355084
              ],
              [
                -114.987824,
                25.658051
              ],
              [
                -114.62122224830233,
                25.593138073880567
              ],
              [
                -114.5781964750687,
                25.815631173815646
              ],
              [
                -114.5784,
                25.815655
              ],
              [
                -114.40656701799283,
                26.702761924811526
              ],
              [
                -116.419217,
                26.934347
              ],
              [
                -116.24788698069278,
                27.817324740614605
              ],
              [
                -117.72366505288487,
                27.984269092185613
              ],
              [
                -117.794407,
                27.660878
              ],
              [
                -120.337379,
                27.948942
              ],
              [
                -120.07903115334993,
                29.277721624315536
              ],
              [
                -120.079332,
                29.277755
              ],
              [
                -119.779856,
                30.810983
              ],
              [
                -117.76600431871553,
                30.584842275589736
              ],
              [
                -117.7430769530651,
                30.70217456829537
              ],
              [
                -117.743376,
                30.702207
              ],
              [
                -117.54375760817682,
                31.71995850211689
              ],
              [
                -119.560173,
                31.93427
              ],
              [
                -119.38132081806494,
                32.8354320757446
              ],
              [
                -121.396745,
                33.045819
              ],
              [
                -121.19442907480436,
                34.06667315209423
              ],
              [
                -123.2116,
                34.272991
              ],
              [
                -123.02933087722926,
                35.1847211327989
              ],
              [
                -125.046832,
                35.387153
              ],
              [
                -124.78047880312593,
                36.71374071974656
              ],
              [
                -124.780971,
                36.713789
              ],
              [
                -124.51231152516962,
                38.039929143120084
              ],
              [
                -124.512842,
                38.03998
              ],
              [
                -124.199639,
                39.57055
              ],
              [
                -121.287599,
                39.288113
              ],
              [
                -121.51187381233545,
                38.37254541231225
              ],
              [
                -119.502762,
                38.173828
              ],
              [
                -119.74971291871361,
                37.14946333039447
              ],
              [
                -118.54450747061455,
                37.027731911898826
              ],
              [
                -118.460005,
                37.447063
              ],
              [
                -116.44267949073974,
                37.24403339552847
              ],
              [
                -116.382403,
                37.542917
              ],
              [
                -113.550121,
                37.258292
              ],
              [
                -113.76546643512938,
                36.354352227434575
              ],
              [
                -111.761651,
                36.149276
              ],
              [
                -111.97487346660006,
                35.24079026665356
              ],
              [
                -109.966344,
                35.03124
              ],
              [
                -110.20077850060053,
                34.018904732207254
              ],
              [
                -108.88912043683881,
                33.87925931923791
              ],
              [
                -108.804212,
                34.308291
              ],
              [
                -106.78879368891761,
                34.094443966278455
              ],
              [
                -106.76757724909528,
                34.20159612398846
              ],
              [
                -106.767996,
                34.201639
              ],
              [
                -106.461934,
                35.73338
              ],
              [
                -104.44681319154815,
                35.524619107038966
              ],
              [
                -104.40262593132547,
                35.745503492191894
              ],
              [
                -104.403002,
                35.745541
              ],
              [
                -104.13605036187022,
                37.07199828648421
              ],
              [
                -104.13655,
                37.072047
              ],
              [
                -103.825597,
                38.602935
              ],
              [
                -101.80832365329272,
                38.40395331045967
              ],
              [
                -101.725605,
                38.810487
              ],
              [
                -98.843882,
                38.527177
              ],
              [
                -99.16549074389836,
                37.19987203239505
              ],
              [
                -99.165391,
                37.199862
              ],
              [
                -99.48143979612506,
                35.87194964928443
              ],
              [
                -99.481346,
                35.87194
              ],
              [
                -99.837743,
                34.348705
              ],
              [
                -99.84064286685464,
                34.34899985264641
              ],
              [
                -100.10171186459888,
                33.21489738999149
              ],
              [
                -100.101578,
                33.214883
              ],
              [
                -100.4032901823478,
                31.885228850658514
              ],
              [
                -100.403155,
                31.885214
              ],
              [
                -100.62711720212536,
                30.885032484081357
              ],
              [
                -99.2241669772028,
                30.72788197408642
              ],
              [
                -99.17865062927376,
                30.96064834788546
              ],
              [
                -99.178953,
                30.960681
              ],
              [
                -98.87805,
                32.49349
              ],
              [
                -96.8636319014908,
                32.273331145503185
              ],
              [
                -96.84105985046004,
                32.38827584910812
              ],
              [
                -96.841431,
                32.388315
              ],
              [
                -96.57927369162118,
                33.71585076499739
              ],
              [
                -96.579683,
                33.715893
              ],
              [
                -96.31584415823876,
                35.04301441516588
              ],
              [
                -96.316286,
                35.043059
              ],
              [
                -96.05002373907946,
                36.36968921963996
              ],
              [
                -96.050427,
                36.369729
              ],
              [
                -95.78245919025518,
                37.69598368858035
              ],
              [
                -95.782981,
                37.696034
              ],
              [
                -95.75327043221387,
                37.84044778388717
              ],
              [
                -95.741061,
                37.900876
              ],
              [
                -95.74084287996756,
                37.90085423109014
              ],
              [
                -95.468135,
                39.226402
              ],
              [
                -92.57321,
                38.944104
              ],
              [
                -92.89656108444849,
                37.61698798867143
              ],
              [
                -92.896461,
                37.616978
              ],
              [
                -93.2139436992666,
                36.28922111827927
              ],
              [
                -93.213825,
                36.289209
              ],
              [
                -93.4263900476446,
                35.38501396903705
              ],
              [
                -91.418152,
                35.176083
              ],
              [
                -91.65467695029679,
                34.15619173597566
              ],
              [
                -89.646021,
                33.942827
              ],
              [
                -89.95009099132669,
                32.61347335346651
              ],
              [
                -89.949968,
                32.61346
              ],
              [
                -90.15073928990486,
                31.723445378942092
              ],
              [
                -88.143969,
                31.501628
              ],
              [
                -88.34353875179835,
                30.607564305499295
              ],
              [
                -86.339452,
                30.382055
              ],
              [
                -86.63340037780272,
                29.051327637270393
              ],
              [
                -86.633273,
                29.051313
              ],
              [
                -86.96667,
                27.525284
              ],
              [
                -88.97420028732857,
                27.753156817326122
              ],
              [
                -89.069771,
                27.314886
              ],
              [
                -91.604269,
                27.603435
              ],
              [
                -91.43129574231524,
                28.488989935303177
              ],
              [
                -92.89043599698809,
                28.65232582117906
              ],
              [
                -92.960955,
                28.33175
              ],
              [
                -94.96867257618797,
                28.556806988110694
              ],
              [
                -95.02266464790934,
                28.310899675439945
              ],
              [
                -95.022547,
                28.310886
              ],
              [
                -95.31190051607713,
                26.97947651742836
              ],
              [
                -95.311795,
                26.979464
              ],
              [
                -95.59856887467346,
                25.64764236074018
              ],
              [
                -95.598475,
                25.647631
              ],
              [
                -95.924559,
                24.120572
              ],
              [
                -97.93101587301972,
                24.36034102635524
              ],
              [
                -98.003529,
                24.020563
              ],
              [
                -100.0094697885234,
                24.26064853429258
              ],
              [
                -100.105962,
                23.807851
              ],
              [
                -102.11213810646072,
                24.048665875160612
              ],
              [
                -102.185866,
                23.702521
              ],
              [
                -104.644228,
                23.998142
              ],
              [
                -104.47345200000511,
                24.881860042404185
              ],
              [
                -106.01026098031433,
                25.063590006377403
              ],
              [
                -106.107694,
                24.608505
              ],
              [
                -108.1143616993191,
                24.84658662240543
              ],
              [
                -108.14469097485342,
                24.704835004707913
              ],
              [
                -108.144585,
                24.704822
              ],
              [
                -108.42749986682979,
                23.37234261754101
              ],
              [
                -108.427407,
                23.372331
              ],
              [
                -108.749568,
                21.844633
              ],
              [
                -111.173718,
                22.144011
              ],
              [
                -111.00557661887163,
                23.0148574828279
              ],
              [
                -113.015708,
                23.259138
              ],
              [
                -112.82432894629709,
                24.24591484253214
              ],
              [
                -114.37481820228146,
                24.431058510946173
              ],
              [
                -114.3939045715325,
                24.341968213176077
              ],
              [
                -114.391948,
                24.341612
              ],
              [
                -114.43092333815105,
                24.159508071796584
              ],
              [
                -114.469248,
                23.980261
              ],
              [
                -114.902566,
                24.054801
              ],
              [
                -115.28037074910871,
                24.118533200769228
              ],
              [
                -115.290312,
                24.070541
              ],
              [
                -115.741728,
                24.145917
              ],
              [
                -116.14413980629716,
                24.21176577577844
              ],
              [
                -116.156105,
                24.152007
              ],
              [
                -116.55198,
                24.215399
              ],
              [
                -116.93316,
                24.275319
              ],
              [
                -116.9009189178707,
                24.441517987122708
              ],
              [
                -116.900919,
                24.441518
              ]
            ]
          ],
          [
            [
              [
                -99.122849,
                20.629697
              ],
              [
                -96.726181,
                20.316936
              ],
              [
                -97.00386336584165,
                18.983412557901485
              ],
              [
                -97.003814,
                18.983406
              ],
              [
                -97.320828,
                17.454739
              ],
              [
                -99.677156,
                17.76359
              ],
              [
                -99.4890842416381,
                18.73564290048715
              ],
              [
                -101.496842,
                18.994589
              ],
              [
                -101.199859,
                20.529861
              ],
              [
                -99.19288699980737,
                20.267572852053316
              ],
              [
                -99.122849,
                20.629697
              ]
            ]
          ]
        ]
      }
    }
  ]
}